"","housenumber","street","city","state","zip","country"
"1","House Number Not Found","Street Not Found","Aachen","North Rhine-Westphalia","52062","Germany"
"2","House Number Not Found","Street Not Found","Aarhus","Central Denmark Region","8240","Denmark"
"3","House Number Not Found","Street Not Found","Abee","Alberta","Postcode Not Found","Canada"
"4","House Number Not Found","Street Not Found","Acapulco","Guerrero","39300","Mexico"
"5","House Number Not Found","Street Not Found","City Not Found","State Not Found","Postcode Not Found","Country Not Found"
"6","House Number Not Found","Street Not Found","City Not Found","State Not Found","Postcode Not Found","Pakistan"
"7","House Number Not Found","Street Not Found","City Not Found","State Not Found","Postcode Not Found","Country Not Found"
"8","House Number Not Found","Street Not Found","Agen","New Aquitaine","47000","France"
"9","House Number Not Found","Street Not Found","City Not Found","State Not Found","Postcode Not Found","Country Not Found"
"10","House Number Not Found","Street Not Found","Capilla del Monte","Córdoba","X5166","Argentina"
"11","House Number Not Found","Street Not Found","City Not Found","State Not Found","Postcode Not Found","Country Not Found"
"12","House Number Not Found","Street Not Found","City Not Found","State Not Found","Postcode Not Found","Country Not Found"
"13","House Number Not Found","Street Not Found","Roquetoire","Nord-Pas-de-Calais and Picardy","62120","France"
"14","House Number Not Found","Street Not Found","City Not Found","State Not Found","Postcode Not Found","Country Not Found"
"15","House Number Not Found","Street Not Found","City Not Found","State Not Found","Postcode Not Found","Country Not Found"
"16","House Number Not Found","Street Not Found","City Not Found","State Not Found","Postcode Not Found","Country Not Found"
"17","House Number Not Found","Street Not Found","City Not Found","State Not Found","Postcode Not Found","Country Not Found"
"18","House Number Not Found","Prince Naif Bin Abdul Aziz Road","Abyar Ali","Al Madinah Region","41475","Saudi Arabia"
"19","House Number Not Found","Street Not Found","City Not Found","State Not Found","Postcode Not Found","Country Not Found"
"20","House Number Not Found","Street Not Found","Alès","Occitania","30100","France"
"21","House Number Not Found","Street Not Found","Castelfranco Emilia","Emilia-Romagna","41015","Italy"
"22","House Number Not Found","Street Not Found","City Not Found","State Not Found","Postcode Not Found","Country Not Found"
"23","House Number Not Found","Street Not Found","Alby-sur-Chéran","Auvergne-Rhône-Alpes","74540","France"
"24","House Number Not Found","Eastington Road","Cotswold","England","GL54 3QZ","United Kingdom"
"25","House Number Not Found","Street Not Found","Aleppo","Aleppo","15310","Syria"
"26","House Number Not Found","Street Not Found","Tortona","Piemont","15047","Italy"
"27","House Number Not Found","Street Not Found","City Not Found","State Not Found","Postcode Not Found","Country Not Found"
"28","House Number Not Found","Street Not Found","City Not Found","Lombardy","Postcode Not Found","Italy"
"29","House Number Not Found","Street Not Found","Millgrove","Michigan","49010","United States of America"
"30","House Number Not Found","Street Not Found","Pueblito de Allende","Chihuahua","33920","Mexico"
"31","House Number Not Found","Street Not Found","City Not Found","State Not Found","Postcode Not Found","Country Not Found"
"32","House Number Not Found","Street Not Found","City Not Found","Kirkuk","Postcode Not Found","Iraq"
"33","House Number Not Found","Street Not Found","City Not Found","State Not Found","Postcode Not Found","Country Not Found"
"34","House Number Not Found","Street Not Found","City Not Found","State Not Found","Postcode Not Found","Country Not Found"
"35","House Number Not Found","Street Not Found","Andover","Maine","04216","United States of America"
"36","House Number Not Found","Street Not Found","Kramatorsk","Donetsk Oblast","84300-84390","Ukraine"
"37","House Number Not Found","Street Not Found","City Not Found","State Not Found","Postcode Not Found","Country Not Found"
"38","House Number Not Found","Street Not Found","Angers","Pays de la Loire","4900","France"
"39","House Number Not Found","Street Not Found","Angra dos Reis","Rio de Janeiro","23934-200","Brazil"
"40","House Number Not Found","Street Not Found","City Not Found","State Not Found","Postcode Not Found","Country Not Found"
"41","House Number Not Found","Street Not Found","City Not Found","State Not Found","Postcode Not Found","Country Not Found"
"42","House Number Not Found","National Route 7 Bypass","Aomori","Aomori Prefecture","0300943","Japan"
"43","House Number Not Found","Street Not Found","West Lancashire","England","WN6 9AJ","United Kingdom"
"44","House Number Not Found","Street Not Found","Apt","Provence-Alpes-Côte d'Azur","84400","France"
"45","House Number Not Found","Street Not Found","City Not Found","State Not Found","Postcode Not Found","Country Not Found"
"46","House Number Not Found","Street Not Found","Austin","Missouri","64725","United States of America"
"47","House Number Not Found","Street Not Found","Villa Laura","Santa Fe","Postcode Not Found","Argentina"
"48","House Number Not Found","Street Not Found","Asco","Corsica","20276","France"
"49","House Number Not Found","Street Not Found","Cottonwood","Texas","Postcode Not Found","United States of America"
"50","House Number Not Found","Walden Road","Uttlesford","England","CB10 2HQ","United Kingdom"
"51","House Number Not Found","Street Not Found","Assisi","Umbria","06081","Italy"
"52","House Number Not Found","Street Not Found","Badausa","Uttar Pradesh","210202","India"
"53","House Number Not Found","Street Not Found","City Not Found","State Not Found","Postcode Not Found","Country Not Found"
"54","House Number Not Found","Street Not Found","Athens","Alabama","35611","United States of America"
"55","House Number Not Found","Street Not Found","Tushka","Oklahoma","74525","United States of America"
"56","House Number Not Found","Street Not Found","Les Pilles","Auvergne-Rhône-Alpes","26110","France"
"57","House Number Not Found","Street Not Found","City Not Found","State Not Found","Postcode Not Found","Country Not Found"
"58","House Number Not Found","Street Not Found","Massegros Causses Gorges","Occitania","48500","France"
"59","House Number Not Found","Street Not Found","Montréjeau","Occitania","31210","France"
"60","House Number Not Found","Street Not Found","Avanhandava","São Paulo","Postcode Not Found","Brazil"
"61","45","Stroga","Brda","State Not Found","5121","Slovenia"
"62","House Number Not Found","Street Not Found","City Not Found","State Not Found","Postcode Not Found","Country Not Found"
"63","House Number Not Found","Street Not Found","City Not Found","Pader","Postcode Not Found","Uganda"
"64","2000","Pepsi Way","Aztec","New Mexico","87410","United States of America"
"65","House Number Not Found","Street Not Found","City Not Found","Donetsk Oblast","84500-84510","Ukraine"
"66","House Number Not Found","Street Not Found","City Not Found","State Not Found","Postcode Not Found","Country Not Found"
"67","House Number Not Found","Street Not Found","Bald Mountain","North Carolina","Postcode Not Found","United States of America"
"68","House Number Not Found","Street Not Found","City Not Found","Mississippi","38824","United States of America"
"69","House Number Not Found","Street Not Found","City Not Found","State Not Found","Postcode Not Found","Country Not Found"
"70","House Number Not Found","Street Not Found","Ban Rong Kok","Phetchabun Province","Postcode Not Found","Thailand"
"71","House Number Not Found","Jalan Industri Dalam","Arjuna","West Java","40172","Indonesia"
"72","House Number Not Found","Street Not Found","City Not Found","State Not Found","Postcode Not Found","Country Not Found"
"73","House Number Not Found","Street Not Found","City Not Found","State Not Found","Postcode Not Found","Country Not Found"
"74","House Number Not Found","Street Not Found","City Not Found","Banten","Postcode Not Found","Indonesia"
"75","House Number Not Found","Street Not Found","Cazaubon","Occitania","32150","France"
"76","House Number Not Found","Street Not Found","Barcelona","Catalonia","08001","Spain"
"77","House Number Not Found","Street Not Found","Entrena","Rioja","26120","Spain"
"78","House Number Not Found","Street Not Found","City Not Found","State Not Found","Postcode Not Found","Country Not Found"
"79","51","Freiligrathstraße","Barntrup","North Rhine-Westphalia","32683","Germany"
"80","House Number Not Found","Street Not Found","City Not Found","State Not Found","Postcode Not Found","Country Not Found"
"81","House Number Not Found","Street Not Found","Hinckley and Bosworth","England","LE9 7HY","United Kingdom"
"82","House Number Not Found","Street Not Found","City Not Found","State Not Found","Postcode Not Found","Country Not Found"
"83","House Number Not Found","Street Not Found","Glosków","Masovian Voivodeship","05-503","Poland"
"84","House Number Not Found","Street Not Found","City Not Found","State Not Found","Postcode Not Found","Country Not Found"
"85","House Number Not Found","Street Not Found","City Not Found","State Not Found","Postcode Not Found","Country Not Found"
"86","House Number Not Found","Street Not Found","City Not Found","State Not Found","Postcode Not Found","Country Not Found"
"87","House Number Not Found","Street Not Found","City Not Found","State Not Found","Postcode Not Found","Country Not Found"
"88","House Number Not Found","Street Not Found","Cape Fair","Missouri","65624","United States of America"
"89","House Number Not Found","Street Not Found","City Not Found","State Not Found","Postcode Not Found","Country Not Found"
"90","House Number Not Found","Street Not Found","City Not Found","State Not Found","Postcode Not Found","Country Not Found"
"91","House Number Not Found","Street Not Found","Beddgelert","Wales","LL55 4UY","United Kingdom"
"92","House Number Not Found","Street Not Found","City Not Found","State Not Found","Postcode Not Found","Country Not Found"
"93","House Number Not Found","Street Not Found","City Not Found","State Not Found","Postcode Not Found","Country Not Found"
"94","House Number Not Found","Street Not Found","City Not Found","State Not Found","Postcode Not Found","Country Not Found"
"95","House Number Not Found","Street Not Found","City Not Found","State Not Found","Postcode Not Found","Country Not Found"
"96","House Number Not Found","Street Not Found","City Not Found","State Not Found","Postcode Not Found","Country Not Found"
"97","House Number Not Found","Street Not Found","City Not Found","State Not Found","Postcode Not Found","Country Not Found"
"98","House Number Not Found","Heald Street","Daveyton","Gauteng","1520","South Africa"
"99","House Number Not Found","Street Not Found","City Not Found","State Not Found","Postcode Not Found","Country Not Found"
"100","House Number Not Found","Street Not Found","City Not Found","State Not Found","Postcode Not Found","Country Not Found"
"101","House Number Not Found","Street Not Found","City Not Found","Entre Ríos","Postcode Not Found","Argentina"
"102","House Number Not Found","Street Not Found","City Not Found","State Not Found","Postcode Not Found","Country Not Found"
"103","House Number Not Found","Street Not Found","Gumiel de Mercado","Castile and León","09443","Spain"
"104","House Number Not Found","Street Not Found","Berthoud","Colorado","Postcode Not Found","United States of America"
"105","House Number Not Found","Street Not Found","Bethlehem Heights","New York","12158","United States of America"
"106","House Number Not Found","Street Not Found","Beuste","New Aquitaine","64800","France"
"107","House Number Not Found","Street Not Found","Park","State Not Found","2052 6703","Lebanon"
"108","House Number Not Found","Street Not Found","Fagne","Maharashtra","424004","India"
"109","House Number Not Found","Street Not Found","City Not Found","State Not Found","Postcode Not Found","Country Not Found"
"110","House Number Not Found","Street Not Found","City Not Found","State Not Found","Postcode Not Found","Country Not Found"
"111","House Number Not Found","Gazipur Road","Bhola","Barisal Division","Postcode Not Found","Bangladesh"
"112","House Number Not Found","Street Not Found","City Not Found","State Not Found","Postcode Not Found","Country Not Found"
"113","26H","Dojlidy Fabryczne","Bialystok","Podlaskie Voivodeship","15-565","Poland"
"114","House Number Not Found","Street Not Found","City Not Found","Khmelnytskyi Oblast","30430","Ukraine"
"115","House Number Not Found","Street Not Found","City Not Found","State Not Found","Postcode Not Found","Country Not Found"
"116","House Number Not Found","Street Not Found","City Not Found","State Not Found","Postcode Not Found","Country Not Found"
"117","House Number Not Found","Street Not Found","City Not Found","Sokoto","Postcode Not Found","Nigeria"
"118","House Number Not Found","Street Not Found","Spur","South Carolina","29010","United States of America"
"119","House Number Not Found","Street Not Found","City Not Found","State Not Found","Postcode Not Found","Country Not Found"
"120","34","Molodizhna Street","Bila Tserkva","Kyiv Oblast","09100-09117","Ukraine"
"121","52","Punasuontie","Porvoo","Southern Finland","Postcode Not Found","Finland"
"122","House Number Not Found","Street Not Found","Rush township","Pennsylvania","16677","United States of America"
"123","House Number Not Found","Street Not Found","City Not Found","Oklahoma","Postcode Not Found","United States of America"
"124","House Number Not Found","Street Not Found","City Not Found","State Not Found","Postcode Not Found","Country Not Found"
"125","House Number Not Found","Seifertova","Blansko","Southeast","67801","Czech Republic"
"126","House Number Not Found","Street Not Found","Bloomington","Illinois","61701","United States of America"
"127","House Number Not Found","Street Not Found","City Not Found","State Not Found","Postcode Not Found","Country Not Found"
"128","House Number Not Found","Street Not Found","City Not Found","San Luis Potosi","Postcode Not Found","Mexico"
"129","House Number Not Found","Street Not Found","City Not Found","State Not Found","Postcode Not Found","Country Not Found"
"130","House Number Not Found","Street Not Found","City Not Found","State Not Found","Postcode Not Found","Country Not Found"
"131","House Number Not Found","Street Not Found","Fidenza","Emilia-Romagna","43036","Italy"
"132","House Number Not Found","Street Not Found","City Not Found","State Not Found","Postcode Not Found","Country Not Found"
"133","House Number Not Found","Street Not Found","<U+0421><U+0442><U+0430><U+0440><U+043E><U+0431><U+043E><U+0440><U+0438><U+0441><U+043A><U+0438><U+043D><U+0441><U+043A><U+0438><U+0439> <U+0441><U+0435><U+043B><U+044C><U+0441><U+043E><U+0432><U+0435><U+0442>","Orenburg Oblast","Postcode Not Found","Russia"
"134","House Number Not Found","Street Not Found","Kvasy","Zakarpattia Oblast","90640","Ukraine"
"135","House Number Not Found","<U+041C><U+0438><U+043D><U+0441><U+043A><U+043E><U+0435> <U+0448><U+043E><U+0441><U+0441><U+0435>","<U+0411><U+043E><U+043B><U+043E><U+0442><U+043E> <U+0421><U+0442><U+0430><U+0440><U+043E><U+0435>","Moscow Oblast","143231","Russia"
"136","16","<U+0406><U+043E><U+0430><U+043D><U+043D><U+0430> <U+041F><U+0443><U+0442><U+0438><U+0432><U+043B><U+044C><U+0441><U+044C><U+043A><U+043E><U+0433><U+043E> <U+043F><U+0440><U+043E><U+0441><U+043F><U+0435><U+043A><U+0442>","Putyvl","Sumy Oblast","41500","Ukraine"
"137","House Number Not Found","Street Not Found","City Not Found","State Not Found","Postcode Not Found","Country Not Found"
"138","House Number Not Found","Street Not Found","City Not Found","State Not Found","Postcode Not Found","Country Not Found"
"139","House Number Not Found","Street Not Found","City Not Found","State Not Found","Postcode Not Found","Country Not Found"
"140","House Number Not Found","Florence Avenue","Avalon","Pennsylvania","15202","United States of America"
"141","117","Street Not Found","Hejtmánkovice","Northeast","55001","Czech Republic"
"142","House Number Not Found","Street Not Found","Breitscheid","Hesse","35767","Germany"
"143","House Number Not Found","Street Not Found","Sandbostel","Lower Saxony","27446","Germany"
"144","House Number Not Found","Street Not Found","<U+0411><U+0440><U+0438><U+0435><U+043D><U+0442><U+0441><U+043A><U+0438><U+0439> <U+0441><U+0435><U+043B><U+044C><U+0441><U+043E><U+0432><U+0435><U+0442>","Orenburg Oblast","Postcode Not Found","Russia"
"145","House Number Not Found","Street Not Found","City Not Found","State Not Found","Postcode Not Found","Country Not Found"
"146","House Number Not Found","Street Not Found","City Not Found","State Not Found","Postcode Not Found","Country Not Found"
"147","House Number Not Found","Street Not Found","City Not Found","State Not Found","Postcode Not Found","Country Not Found"
"148","House Number Not Found","Street Not Found","City Not Found","State Not Found","Postcode Not Found","Country Not Found"
"149","House Number Not Found","Street Not Found","City Not Found","State Not Found","Postcode Not Found","Country Not Found"
"150","House Number Not Found","Street Not Found","Hardy","Kentucky","41531","United States of America"
"151","House Number Not Found","Toki Caddesi","Kestel Mahallesi","Bursa","16300","Turkey"
"152","House Number Not Found","Street Not Found","Gârciu","Harghita","537299","Romania"
"153","House Number Not Found","Street Not Found","City Not Found","State Not Found","Postcode Not Found","Country Not Found"
"154","House Number Not Found","Street Not Found","City Not Found","State Not Found","Postcode Not Found","Country Not Found"
"155","House Number Not Found","Street Not Found","City Not Found","State Not Found","Postcode Not Found","Country Not Found"
"156","House Number Not Found","Street Not Found","Murcia","Region of Murcia","30167","Spain"
"157","House Number Not Found","Street Not Found","Woodland","Arkansas","72830","United States of America"
"158","House Number Not Found","Street Not Found","Cacak","Central Serbia","32000","Serbia"
"159","House Number Not Found","Street Not Found","Perímetro Urbano Santiago de Cali","Valle del Cauca","760020","Colombia"
"160","House Number Not Found","Street Not Found","City Not Found","State Not Found","Postcode Not Found","Country Not Found"
"161","House Number Not Found","Street Not Found","Salitre","Ceará","Postcode Not Found","Brazil"
"162","House Number Not Found","Street Not Found","City Not Found","State Not Found","Postcode Not Found","Country Not Found"
"163","House Number Not Found","Street Not Found","Castellet i la Gornal","Catalonia","088800","Spain"
"164","House Number Not Found","Street Not Found","Cangas de Onís","Asturias","33550","Spain"
"165","House Number Not Found","Street Not Found","Cañon City","Colorado","81212","United States of America"
"166","House Number Not Found","Street Not Found","Cape Girardeau","Missouri","63701","United States of America"
"167","House Number Not Found","Street Not Found","Capilla del Monte","Córdoba","X5166","Argentina"
"168","House Number Not Found","Street Not Found","Desaguadero","Puno","Postcode Not Found","Peru"
"169","House Number Not Found","Street Not Found","Kakliç","Izmir","Postcode Not Found","Turkey"
"170","House Number Not Found","Street Not Found","Castalia","North Carolina","27816","United States of America"
"171","House Number Not Found","Street Not Found","Castelnuovo Berardenga","Tuscany","53019","Italy"
"172","House Number Not Found","Street Not Found","West Brooksville","Maine","04617","United States of America"
"173","House Number Not Found","Via Giudeca","Castrovillari","Calabria","87012","Italy"
"174","House Number Not Found","Street Not Found","Estelle","North Carolina","27305","United States of America"
"175","House Number Not Found","Street Not Found","City Not Found","State Not Found","Postcode Not Found","Country Not Found"
"176","House Number Not Found","Street Not Found","City Not Found","South Dakota","Postcode Not Found","United States of America"
"177","House Number Not Found","Street Not Found","Serralunga di Crea","Piemont","15020","Italy"
"178","House Number Not Found","Street Not Found","Gaohe","Hunan","416200","China"
"179","House Number Not Found","Street Not Found","City Not Found","State Not Found","Postcode Not Found","Country Not Found"
"180","House Number Not Found","Street Not Found","City Not Found","State Not Found","Postcode Not Found","Country Not Found"
"181","House Number Not Found","Street Not Found","City Not Found","State Not Found","Postcode Not Found","Country Not Found"
"182","House Number Not Found","Street Not Found","City Not Found","State Not Found","Postcode Not Found","Country Not Found"
"183","House Number Not Found","Street Not Found","City Not Found","State Not Found","Postcode Not Found","Country Not Found"
"184","House Number Not Found","Street Not Found","City Not Found","State Not Found","Postcode Not Found","Country Not Found"
"185","House Number Not Found","Street Not Found","Pouligny-Saint-Pierre","Centre-Loire Valley","36300","France"
"186","House Number Not Found","Street Not Found","Charlotte","Tennessee","37187","United States of America"
"187","House Number Not Found","Street Not Found","Charsonville","Centre-Loire Valley","41240","France"
"188","House Number Not Found","Street Not Found","City Not Found","State Not Found","Postcode Not Found","Country Not Found"
"189","House Number Not Found","Street Not Found","Chassigny","Grand Est","52190","France"
"190","House Number Not Found","Street Not Found","Château-Renard","Centre-Loire Valley","45220","France"
"191","House Number Not Found","Street Not Found","Verín","Galicia","32619","Spain"
"192","House Number Not Found","Street Not Found","City Not Found","State Not Found","Postcode Not Found","Country Not Found"
"193","House Number Not Found","Street Not Found","City Not Found","State Not Found","Postcode Not Found","Country Not Found"
"194","House Number Not Found","Street Not Found","City Not Found","State Not Found","Postcode Not Found","Country Not Found"
"195","House Number Not Found","Street Not Found","<U+0417><U+0430><U+0432><U+043E><U+0434><U+0441><U+043A><U+043E><U+0441><U+043B><U+043E><U+0431><U+043E><U+0434><U+0441><U+043A><U+0438><U+0439> <U+0441><U+0435><U+043B><U+044C><U+0441><U+043A><U+0438><U+0439> <U+0421><U+043E><U+0432><U+0435><U+0442>","Mahilyow Region","Postcode Not Found","Belarus"
"196","720","Mount Pleasant Road","Lakeview Manor","South Carolina","29307","United States of America"
"197","1a","Route du Battoir","Oron","Vaud","1607","Switzerland"
"198","House Number Not Found","Street Not Found","City Not Found","State Not Found","Postcode Not Found","Country Not Found"
"199","House Number Not Found","Street Not Found","City Not Found","Karnataka","Postcode Not Found","India"
"200","House Number Not Found","Street Not Found","Chiang Khan","Loei Province","42110","Thailand"
"201","House Number Not Found","Street Not Found","Donegal Township","Pennsylvania","16025","United States of America"
"202","House Number Not Found","Street Not Found","City Not Found","State Not Found","Postcode Not Found","Country Not Found"
"203","House Number Not Found","Street Not Found","City Not Found","State Not Found","Postcode Not Found","Country Not Found"
"204","3","Rue du Vieux Joué","Montreuil-en-Touraine","Centre-Loire Valley","37530","France"
"205","House Number Not Found","Street Not Found","Cikareo Utara","West Java","Postcode Not Found","Indonesia"
"206","House Number Not Found","Street Not Found","Camp Olvier","Georgia","30429","United States of America"
"207","House Number Not Found","Street Not Found","City Not Found","Wisconsin","54421","United States of America"
"208","House Number Not Found","Street Not Found","City Not Found","State Not Found","Postcode Not Found","Country Not Found"
"209","House Number Not Found","Street Not Found","Alamando","Michigan","48618","United States of America"
"210","House Number Not Found","Street Not Found","Terni","Umbria","05100","Italy"
"211","House Number Not Found","Street Not Found","City Not Found","State Not Found","Postcode Not Found","Country Not Found"
"212","House Number Not Found","Street Not Found","City Not Found","State Not Found","Postcode Not Found","Country Not Found"
"213","House Number Not Found","Street Not Found","City Not Found","Kerala","Postcode Not Found","India"
"214","House Number Not Found","Street Not Found","Crescent","Oklahoma","73028","United States of America"
"215","House Number Not Found","Street Not Found","Moqhaka Local Municipality","Free State","1499","South Africa"
"216","House Number Not Found","Street Not Found","Beulahtown","North Carolina","27542","United States of America"
"217","House Number Not Found","Riverside Walk","Crumlin","Northern Ireland","BT29 4BW","United Kingdom"
"218","House Number Not Found","Street Not Found","City Not Found","Kentucky","40701","United States of America"
"219","House Number Not Found","Street Not Found","Belmont","Kentucky","41031","United States of America"
"220","House Number Not Found","Street Not Found","City Not Found","Kasserine","1280","Tunisia"
"221","House Number Not Found","Street Not Found","City Not Found","Uttar Pradesh","274304","India"
"222","House Number Not Found","Street Not Found","City Not Found","State Not Found","Postcode Not Found","Country Not Found"
"223","House Number Not Found","Street Not Found","Danville","Alabama","35619","United States of America"
"224","8","Schöfferstraße","Darmstadt","Hesse","64295","Germany"
"225","House Number Not Found","Street Not Found","City Not Found","State Not Found","Postcode Not Found","Country Not Found"
"226","House Number Not Found","Street Not Found","Daule","Guayas","091902","Ecuador"
"227","400","3rd Line","City Not Found","Ontario","Postcode Not Found","Canada"
"228","House Number Not Found","Brighton Avenue","Deal","New Jersey","07723","United States of America"
"229","House Number Not Found","Veer Savarkar Marg","City Not Found","Delhi","110024","India"
"230","House Number Not Found","Street Not Found","City Not Found","State Not Found","Postcode Not Found","Country Not Found"
"231","House Number Not Found","Street Not Found","Denver","Colorado","80207","United States of America"
"232","House Number Not Found","Street Not Found","City Not Found","State Not Found","Postcode Not Found","Country Not Found"
"233","House Number Not Found","Street Not Found","City Not Found","State Not Found","Postcode Not Found","Country Not Found"
"234","House Number Not Found","Street Not Found","City Not Found","State Not Found","Postcode Not Found","Country Not Found"
"235","House Number Not Found","Street Not Found","City Not Found","State Not Found","Postcode Not Found","Country Not Found"
"236","House Number Not Found","Street Not Found","City Not Found","State Not Found","Postcode Not Found","Country Not Found"
"237","House Number Not Found","Street Not Found","City Not Found","State Not Found","Postcode Not Found","Country Not Found"
"238","House Number Not Found","Street Not Found","City Not Found","State Not Found","Postcode Not Found","Country Not Found"
"239","House Number Not Found","Street Not Found","Yesilkent","Aydin","09270","Turkey"
"240","House Number Not Found","Street Not Found","City Not Found","State Not Found","Postcode Not Found","Country Not Found"
"241","House Number Not Found","Street Not Found","City Not Found","State Not Found","Postcode Not Found","Country Not Found"
"242","House Number Not Found","Street Not Found","City Not Found","East Java","Postcode Not Found","Indonesia"
"243","House Number Not Found","Street Not Found","City Not Found","State Not Found","Postcode Not Found","Country Not Found"
"244","House Number Not Found","Street Not Found","City Not Found","State Not Found","Postcode Not Found","Country Not Found"
"245","House Number Not Found","Street Not Found","City Not Found","State Not Found","Postcode Not Found","Country Not Found"
"246","2","Poshtova Street","Lutsk","Volyn Oblast","43001","Ukraine"
"247","House Number Not Found","Street Not Found","City Not Found","State Not Found","Postcode Not Found","Country Not Found"
"248","House Number Not Found","Street Not Found","City Not Found","State Not Found","Postcode Not Found","Country Not Found"
"249","House Number Not Found","Street Not Found","City Not Found","Chhattisgarh","495554","India"
"250","House Number Not Found","Street Not Found","City Not Found","State Not Found","Postcode Not Found","Country Not Found"
"251","House Number Not Found","Street Not Found","City Not Found","State Not Found","Postcode Not Found","Country Not Found"
"252","House Number Not Found","Street Not Found","Dosso","Dosso","Postcode Not Found","Niger"
"253","House Number Not Found","Street Not Found","City Not Found","State Not Found","Postcode Not Found","Country Not Found"
"254","House Number Not Found","Street Not Found","Dowa","Dowa","Postcode Not Found","Malawi"
"255","House Number Not Found","Street Not Found","Gallatin","Tennessee","37066","United States of America"
"256","House Number Not Found","Street Not Found","Oungah","Ontario","N0P 1L0","Canada"
"257","House Number Not Found","Street Not Found","City Not Found","State Not Found","Postcode Not Found","Croatia"
"258","House Number Not Found","Street Not Found","City Not Found","State Not Found","Postcode Not Found","Country Not Found"
"259","House Number Not Found","Street Not Found","The Municipal District of Cahir — Cashel","State Not Found","Postcode Not Found","Ireland"
"260","House Number Not Found","Street Not Found","City Not Found","State Not Found","Postcode Not Found","Country Not Found"
"261","House Number Not Found","Street Not Found","City Not Found","Punjab","Postcode Not Found","India"
"262","House Number Not Found","Street Not Found","City Not Found","State Not Found","Postcode Not Found","Country Not Found"
"263","House Number Not Found","Street Not Found","City Not Found","State Not Found","Postcode Not Found","Country Not Found"
"264","House Number Not Found","Street Not Found","City Not Found","State Not Found","Postcode Not Found","Country Not Found"
"265","House Number Not Found","Street Not Found","City Not Found","Uttar Pradesh","Postcode Not Found","India"
"266","House Number Not Found","Street Not Found","City Not Found","State Not Found","Postcode Not Found","Country Not Found"
"267","House Number Not Found","Street Not Found","City Not Found","Nebraska","68520","United States of America"
"268","House Number Not Found","Street Not Found","Namacunde","Cunene","Postcode Not Found","Angola"
"269","5","Dr.-Hans-Hutter-Straße","Eichstätt","Bavaria","85072","Germany"
"270","House Number Not Found","Street Not Found","Vilhelmsfält","Skåne County","260 51","Sweden"
"271","House Number Not Found","Street Not Found","City Not Found","State Not Found","Postcode Not Found","Country Not Found"
"272","House Number Not Found","Street Not Found","City Not Found","State Not Found","Postcode Not Found","Country Not Found"
"273","House Number Not Found","Street Not Found","City Not Found","State Not Found","Postcode Not Found","Country Not Found"
"274","House Number Not Found","Street Not Found","City Not Found","State Not Found","Postcode Not Found","Country Not Found"
"275","House Number Not Found","Street Not Found","City Not Found","State Not Found","Postcode Not Found","Country Not Found"
"276","House Number Not Found","Street Not Found","Staré Sedlo","Northwest","35734","Czech Republic"
"277","House Number Not Found","Street Not Found","<U+041E><U+043B><U+0435><U+043D><U+0456><U+0432><U+0441><U+044C><U+043A><U+0430> <U+0441><U+0435><U+043B><U+0438><U+0449><U+043D><U+0430> <U+0440><U+0430><U+0434><U+0430>","Donetsk Oblast","85710","Ukraine"
"278","House Number Not Found","Street Not Found","Schouwen-Duiveland","Zeeland","Postcode Not Found","The Netherlands"
"279","House Number Not Found","Street Not Found","City Not Found","State Not Found","Postcode Not Found","Country Not Found"
"280","House Number Not Found","Street Not Found","Wuyangba Subdistrict","Hubei","445017","China"
"281","House Number Not Found","Street Not Found","Ensisheim","Grand Est","68190","France"
"282","House Number Not Found","Avenue Robert Schuman","Épinal","Grand Est","88000","France"
"283","House Number Not Found","Street Not Found","City Not Found","State Not Found","Postcode Not Found","Country Not Found"
"284","House Number Not Found","Street Not Found","City Not Found","Kotayk Province","2401","Armenia"
"285","House Number Not Found","Street Not Found","City Not Found","State Not Found","Postcode Not Found","Country Not Found"
"286","House Number Not Found","Breite Straße","Erxleben","Saxony-Anhalt","39343","Germany"
"287","House Number Not Found","Street Not Found","Esnandes","New Aquitaine","17137","France"
"288","House Number Not Found","Street Not Found","Aru","Ituri","Postcode Not Found","Democratic Republic of the Congo"
"289","House Number Not Found","Street Not Found","Estherville","Iowa","51334","United States of America"
"290","House Number Not Found","Street Not Found","City Not Found","State Not Found","Postcode Not Found","Country Not Found"
"291","6770","Dickinson Avenue","Ballards Crossroad","North Carolina","27828","United States of America"
"292","House Number Not Found","Street Not Found","Laissac-Sévérac l'Église","Occitania","12310","France"
"293","House Number Not Found","Street Not Found","Fayetteville","Arkansas","72701","United States of America"
"294","House Number Not Found","Street Not Found","El Kala","El Tarf","36002","Algeria"
"295","House Number Not Found","Street Not Found","City Not Found","State Not Found","Postcode Not Found","Country Not Found"
"296","House Number Not Found","Street Not Found","City Not Found","State Not Found","Postcode Not Found","Country Not Found"
"297","House Number Not Found","Street Not Found","City Not Found","State Not Found","Postcode Not Found","Country Not Found"
"298","House Number Not Found","Street Not Found","Fermo","Marche","63017","Italy"
"299","House Number Not Found","Street Not Found","City Not Found","Minnesota","56723","United States of America"
"300","House Number Not Found","Street Not Found","City Not Found","State Not Found","Postcode Not Found","Country Not Found"
"301","House Number Not Found","Street Not Found","Forest City","Iowa","50436","United States of America"
"302","House Number Not Found","Street Not Found","City Not Found","State Not Found","Postcode Not Found","Country Not Found"
"303","House Number Not Found","Street Not Found","City Not Found","Virginia","Postcode Not Found","United States of America"
"304","House Number Not Found","Street Not Found","Overath","North Rhine-Westphalia","51491","Germany"
"305","House Number Not Found","Street Not Found","City Not Found","Georgia","31029","United States of America"
"306","House Number Not Found","Street Not Found","City Not Found","State Not Found","Postcode Not Found","Country Not Found"
"307","House Number Not Found","Street Not Found","Belgreen","Alabama","35653","United States of America"
"308","House Number Not Found","Street Not Found","City Not Found","State Not Found","Postcode Not Found","Country Not Found"
"309","House Number Not Found","National Route 444","Shiroishi","Saga Prefecture","Postcode Not Found","Japan"
"310","1K","Lettebækvej","Bellinge","Region of Southern Denmark","5250","Denmark"
"311","House Number Not Found","Street Not Found","City Not Found","Uttar Pradesh","212600","India"
"312","House Number Not Found","Street Not Found","Yingdong","Anhui","Postcode Not Found","China"
"313","House Number Not Found","Street Not Found","City Not Found","New Aquitaine","47190","France"
"314","House Number Not Found","Street Not Found","City Not Found","State Not Found","Postcode Not Found","Country Not Found"
"315","House Number Not Found","Street Not Found","City Not Found","State Not Found","Postcode Not Found","Country Not Found"
"316","House Number Not Found","Street Not Found","City Not Found","State Not Found","Postcode Not Found","Country Not Found"
"317","House Number Not Found","Street Not Found","Gambat","State Not Found","77150","Pakistan"
"318","House Number Not Found","Street Not Found","City Not Found","Central-West","Postcode Not Found","Burkina Faso"
"319","House Number Not Found","Street Not Found","City Not Found","State Not Found","Postcode Not Found","Country Not Found"
"320","House Number Not Found","Street Not Found","Elwood","Utah","84314","United States of America"
"321","House Number Not Found","Street Not Found","City Not Found","State Not Found","Postcode Not Found","Country Not Found"
"322","House Number Not Found","Street Not Found","City Not Found","State Not Found","Postcode Not Found","Country Not Found"
"323","House Number Not Found","Street Not Found","City Not Found","State Not Found","Postcode Not Found","Country Not Found"
"324","House Number Not Found","<U+5C90><U+961C><U+7F8E><U+6FC3><U+7DDA>","Mino","Gifu Prefecture","501-3763","Japan"
"325","House Number Not Found","Street Not Found","City Not Found","Sicily","92100","Italy"
"326","House Number Not Found","Street Not Found","City Not Found","State Not Found","Postcode Not Found","Country Not Found"
"327","10","Hulststraat","Enschede","Overijssel","7544TK","The Netherlands"
"328","House Number Not Found","Street Not Found","City Not Found","State Not Found","Postcode Not Found","Country Not Found"
"329","13<U+0410>","<U+0412><U+043E><U+043D><U+0436><U+0438><U+043D><U+0441><U+043A><U+0430><U+044F> <U+0443><U+043B><U+0438><U+0446><U+0430>","Kashin","Tver Oblast","171645","Russia"
"330","House Number Not Found","Street Not Found","Huntingdonshire","England","PE28 5RP","United Kingdom"
"331","5","Sasiedzka","Pilawa Górna","Lower Silesian Voivodeship","58-240","Poland"
"332","House Number Not Found","Street Not Found","City Not Found","State Not Found","Postcode Not Found","Country Not Found"
"333","House Number Not Found","Street Not Found","City Not Found","Donetsk Oblast","84600-84690","Ukraine"
"334","House Number Not Found","Street Not Found","Granès","Occitania","11500","France"
"335","House Number Not Found","Totenvegen","Skreia","Oppland","2848","Norway"
"336","House Number Not Found","Street Not Found","Grimsby","Ontario","L8E 5K7","Canada"
"337","House Number Not Found","Severnaya Street","Mekenskaya","Chechen Republic","366131","Russia"
"338","House Number Not Found","Street Not Found","District of Žilina","Region of Žilina","023 31","Slovakia"
"339","House Number Not Found","Street Not Found","Velykodolynske","Odesa Oblast","67832","Ukraine"
"340","House Number Not Found","Street Not Found","Zielona Góra","Lubusz Voivodeship","65-452","Poland"
"341","House Number Not Found","Street Not Found","City Not Found","Greater Poland Voivodeship","64700","Poland"
"342","House Number Not Found","Street Not Found","Gualeguaychu","Entre Ríos","2820","Argentina"
"343","House Number Not Found","Street Not Found","City Not Found","State Not Found","Postcode Not Found","Country Not Found"
"344","House Number Not Found","Street Not Found","City Not Found","State Not Found","Postcode Not Found","Country Not Found"
"345","House Number Not Found","Street Not Found","Guangrao","Shandong","257100","China"
"346","House Number Not Found","Street Not Found","City Not Found","State Not Found","Postcode Not Found","Country Not Found"
"347","House Number Not Found","Street Not Found","Guca","Central Serbia","32230","Serbia"
"348","House Number Not Found","Street Not Found","City Not Found","State Not Found","Postcode Not Found","Country Not Found"
"349","House Number Not Found","Street Not Found","City Not Found","North","Postcode Not Found","Cameroon"
"350","House Number Not Found","Devas - Ujjain Highway","Dewas","Madhya Pradesh","455001","India"
"351","House Number Not Found","Street Not Found","City Not Found","State Not Found","Postcode Not Found","Country Not Found"
"352","House Number Not Found","Vasil Iliev","Troyan","State Not Found","5600","Bulgaria"
"353","House Number Not Found","Street Not Found","Sangasamudram","Andhra Pradesh","517297","India"
"354","House Number Not Found","Street Not Found","City Not Found","State Not Found","Postcode Not Found","Country Not Found"
"355","House Number Not Found","Street Not Found","Gütersloh","North Rhine-Westphalia","33330","Germany"
"356","House Number Not Found","Street Not Found","Suncheon-si","Jeollanam-do","57926","South Korea"
"357","House Number Not Found","Fujimi-dori","Hachioji","Tokyo","192-0084","Japan"
"358","House Number Not Found","Street Not Found","City Not Found","Nord-Pas-de-Calais and Picardy","59570","France"
"359","House Number Not Found","Street Not Found","Hallingeberg","Kalmar County","59491","Sweden"
"360","House Number Not Found","Street Not Found","City Not Found","Indiana","46532","United States of America"
"361","House Number Not Found","Street Not Found","City Not Found","State Not Found","Postcode Not Found","Country Not Found"
"362","House Number Not Found","Street Not Found","City Not Found","Haryana","123200","India"
"363","House Number Not Found","Street Not Found","City Not Found","Texas","75651","United States of America"
"364","House Number Not Found","Street Not Found","Moberly","Indiana","471112","United States of America"
"365","House Number Not Found","<U+6851><U+539F><U+4E0B><U+4E2D><U+7DDA>","Hashima","Gifu Prefecture","501-6295","Japan"
"366","House Number Not Found","Street Not Found","City Not Found","State Not Found","Postcode Not Found","Country Not Found"
"367","House Number Not Found","Street Not Found","Vale of White Horse","England","SN7 8JG","United Kingdom"
"368","House Number Not Found","Street Not Found","Pargas","Southern Finland","Postcode Not Found","Finland"
"369","House Number Not Found","Sjöbovägen","Bromma","Skåne County","27151","Sweden"
"370","House Number Not Found","Street Not Found","City Not Found","State Not Found","Postcode Not Found","Country Not Found"
"371","House Number Not Found","Calle 3","San Pablo","Provincia Heredia","40901","Costa Rica"
"372","9","Rimbogatan","Uppsala","Uppsala County","75324","Sweden"
"373","House Number Not Found","Hakata Bypass","Fukuoka","Fukuoka Prefecture","812-0041","Japan"
"374","House Number Not Found","Street Not Found","Bishopbriggs","Scotland","G64 1RP","United Kingdom"
"375","House Number Not Found","<U+5E83><U+5CF6><U+6E6F><U+6765><U+7DDA>","Hiroshima","Hiroshima Prefecture","731-3165","Japan"
"376","House Number Not Found","Street Not Found","City Not Found","State Not Found","Postcode Not Found","Country Not Found"
"377","House Number Not Found","Street Not Found","City Not Found","Västerbotten County","Postcode Not Found","Sweden"
"378","House Number Not Found","Purple Heart Trail","Holbrook","Arizona","Postcode Not Found","United States of America"
"379","House Number Not Found","Street Not Found","City Not Found","State Not Found","Postcode Not Found","Country Not Found"
"380","House Number Not Found","Street Not Found","Amana","Iowa","52203","United States of America"
"381","House Number Not Found","Street Not Found","Honolulu","Hawaii","96850","United States of America"
"382","House Number Not Found","Street Not Found","City Not Found","Shandong","Postcode Not Found","China"
"383","House Number Not Found","Street Not Found","Hoxie","Kansas","67740","United States of America"
"384","House Number Not Found","Street Not Found","Opcina Visoko","State Not Found","Postcode Not Found","Croatia"
"385","House Number Not Found","<U+73AF><U+57CE><U+516C><U+8DEF>","Guiyang City","Guizhou","Postcode Not Found","China"
"386","House Number Not Found","Street Not Found","Altenstadt","Hesse","63674","Germany"
"387","21","Lauttakylänkatu","Huittinen","Western Finland","32700","Finland"
"388","21","Brockwiesenstraße","Ibbenbüren","North Rhine-Westphalia","49477","Germany"
"389","House Number Not Found","Street Not Found","City Not Found","State Not Found","Postcode Not Found","Country Not Found"
"390","House Number Not Found","Street Not Found","City Not Found","State Not Found","Postcode Not Found","Country Not Found"
"391","House Number Not Found","Street Not Found","City Not Found","State Not Found","Postcode Not Found","Country Not Found"
"392","House Number Not Found","Street Not Found","City Not Found","State Not Found","Postcode Not Found","Country Not Found"
"393","House Number Not Found","Street Not Found","Iguaraçu","Paraná","Postcode Not Found","Brazil"
"394","House Number Not Found","Street Not Found","City Not Found","State Not Found","Postcode Not Found","Country Not Found"
"395","House Number Not Found","Street Not Found","City Not Found","State Not Found","Postcode Not Found","Country Not Found"
"396","House Number Not Found","South Pearl Street","Independence","Missouri","64055","United States of America"
"397","House Number Not Found","Street Not Found","City Not Found","State Not Found","Postcode Not Found","Country Not Found"
"398","House Number Not Found","Street Not Found","City Not Found","State Not Found","Postcode Not Found","Country Not Found"
"399","House Number Not Found","Street Not Found","Foz do Iguaçu","Paraná","PARANÁ","Brazil"
"400","House Number Not Found","Street Not Found","City Not Found","State Not Found","Postcode Not Found","Country Not Found"
"401","House Number Not Found","Street Not Found","City Not Found","Entre Ríos","3206","Argentina"
"402","House Number Not Found","Street Not Found","City Not Found","State Not Found","Postcode Not Found","Country Not Found"
"403","House Number Not Found","Street Not Found","City Not Found","State Not Found","Postcode Not Found","Country Not Found"
"404","House Number Not Found","Street Not Found","City Not Found","State Not Found","Postcode Not Found","Country Not Found"
"405","House Number Not Found","Street Not Found","City Not Found","State Not Found","Postcode Not Found","Country Not Found"
"406","House Number Not Found","Street Not Found","City Not Found","State Not Found","Postcode Not Found","Country Not Found"
"407","House Number Not Found","Street Not Found","City Not Found","State Not Found","Postcode Not Found","Country Not Found"
"408","House Number Not Found","Street Not Found","Jamkhed","Maharashtra","413200","India"
"409","House Number Not Found","Street Not Found","City Not Found","State Not Found","Postcode Not Found","Country Not Found"
"410","House Number Not Found","Street Not Found","<U+0412><U+0438><U+0459><U+0443><U+0448><U+0430>","Central Serbia","32104","Serbia"
"411","House Number Not Found","A2 (Karavanke-Ljubljana)","Jesenice","State Not Found","4270","Slovenia"
"412","House Number Not Found","Street Not Found","City Not Found","State Not Found","Postcode Not Found","Country Not Found"
"413","House Number Not Found","Street Not Found","City Not Found","State Not Found","Postcode Not Found","Country Not Found"
"414","House Number Not Found","Street Not Found","City Not Found","State Not Found","Postcode Not Found","Country Not Found"
"415","House Number Not Found","Street Not Found","City Not Found","Jilin","132011","China"
"416","House Number Not Found","Street Not Found","Jodiya","Gujarat","361250","India"
"417","House Number Not Found","Street Not Found","City Not Found","Panevezys County","38120","Lithuania"
"418","House Number Not Found","Street Not Found","Clark","Colorado","80534","United States of America"
"419","House Number Not Found","Street Not Found","City Not Found","State Not Found","Postcode Not Found","Country Not Found"
"420","House Number Not Found","Street Not Found","Jonzac","New Aquitaine","17500","France"
"421","House Number Not Found","Street Not Found","City Not Found","State Not Found","Postcode Not Found","Country Not Found"
"422","House Number Not Found","Street Not Found","City Not Found","Karnataka","571432","India"
"423","House Number Not Found","Street Not Found","Surakarta","Central Java","57131","Indonesia"
"424","House Number Not Found","Street Not Found","Linyi City","Shandong","Postcode Not Found","China"
"425","House Number Not Found","Street Not Found","Alandroal (Nossa Senhora da Conceição), São Brás dos Matos (Mina do Bugalho) e Juromenha (Nossa Senhora do Loreto)","Alentejo","Postcode Not Found","Portugal"
"426","House Number Not Found","Street Not Found","Juvinas","Auvergne-Rhône-Alpes","07600","France"
"427","House Number Not Found","Street Not Found","Kaba","Great Plain and North","4183","Hungary"
"428","House Number Not Found","Street Not Found","City Not Found","State Not Found","Postcode Not Found","Country Not Found"
"429","House Number Not Found","Street Not Found","City Not Found","State Not Found","Postcode Not Found","Country Not Found"
"430","House Number Not Found","Street Not Found","City Not Found","State Not Found","Postcode Not Found","Country Not Found"
"431","22","<U+041D><U+0435><U+0437><U+0430><U+043B><U+0435><U+0436><U+043D><U+043E><U+0441><U+0442><U+0456> <U+0432><U+0443><U+043B><U+0438><U+0446><U+044F>","Kaharlyk","Kyiv Oblast","09200","Ukraine"
"432","House Number Not Found","Street Not Found","City Not Found","State Not Found","Postcode Not Found","Country Not Found"
"433","House Number Not Found","Street Not Found","City Not Found","Tatarstan","423972","Russia"
"434","House Number Not Found","Street Not Found","City Not Found","Tamil Nadu","Postcode Not Found","India"
"435","House Number Not Found","Street Not Found","City Not Found","State Not Found","Postcode Not Found","Country Not Found"
"436","House Number Not Found","Street Not Found","City Not Found","State Not Found","Postcode Not Found","Country Not Found"
"437","House Number Not Found","Street Not Found","City Not Found","State Not Found","Postcode Not Found","Country Not Found"
"438","House Number Not Found","Street Not Found","City Not Found","State Not Found","Postcode Not Found","Country Not Found"
"439","House Number Not Found","Street Not Found","Joso","Ibaraki Prefecture","3002521","Japan"
"440","House Number Not Found","Street Not Found","City Not Found","State Not Found","Postcode Not Found","Country Not Found"
"441","House Number Not Found","Street Not Found","City Not Found","State Not Found","Postcode Not Found","Country Not Found"
"442","House Number Not Found","Street Not Found","City Not Found","State Not Found","Postcode Not Found","Country Not Found"
"443","House Number Not Found","Street Not Found","City Not Found","State Not Found","Postcode Not Found","Country Not Found"
"444","House Number Not Found","Street Not Found","City Not Found","State Not Found","Postcode Not Found","Country Not Found"
"445","House Number Not Found","Street Not Found","City Not Found","Gujarat","Postcode Not Found","India"
"446","House Number Not Found","Street Not Found","City Not Found","State Not Found","Postcode Not Found","Country Not Found"
"447","House Number Not Found","Street Not Found","City Not Found","State Not Found","Postcode Not Found","Country Not Found"
"448","House Number Not Found","Street Not Found","City Not Found","State Not Found","Postcode Not Found","Country Not Found"
"449","House Number Not Found","Street Not Found","City Not Found","State Not Found","Postcode Not Found","Country Not Found"
"450","House Number Not Found","Street Not Found","City Not Found","State Not Found","Postcode Not Found","Country Not Found"
"451","House Number Not Found","Street Not Found","City Not Found","State Not Found","Postcode Not Found","Country Not Found"
"452","House Number Not Found","Karoonda Highway","Alawoona","South Australia","5311","Australia"
"453","House Number Not Found","sato-komaki-kitagata-kounan line","Ichinomiya","Aichi Prefecture","501-6181","Japan"
"454","House Number Not Found","Street Not Found","City Not Found","State Not Found","Postcode Not Found","Country Not Found"
"455","House Number Not Found","Street Not Found","City Not Found","State Not Found","Postcode Not Found","Country Not Found"
"456","House Number Not Found","Street Not Found","Kota","Rajasthan","324001","India"
"457","House Number Not Found","Street Not Found","City Not Found","State Not Found","Postcode Not Found","Country Not Found"
"458","House Number Not Found","Street Not Found","City Not Found","East Java","64151","Indonesia"
"459","House Number Not Found","Street Not Found","City Not Found","State Not Found","Postcode Not Found","Country Not Found"
"460","House Number Not Found","Street Not Found","Kendleton","Texas","77451","United States of America"
"461","House Number Not Found","Street Not Found","City Not Found","State Not Found","Postcode Not Found","Country Not Found"
"462","House Number Not Found","Street Not Found","Maël-Pestivien","Brittany","22160","France"
"463","House Number Not Found","Street Not Found","City Not Found","Brittany","Postcode Not Found","France"
"464","House Number Not Found","national route 45","Rikuzen Takata","Iwate Prefecture","029-2205","Japan"
"465","House Number Not Found","Street Not Found","City Not Found","State Not Found","Postcode Not Found","Country Not Found"
"466","House Number Not Found","Street Not Found","City Not Found","State Not Found","Postcode Not Found","Country Not Found"
"467","House Number Not Found","Street Not Found","City Not Found","State Not Found","Postcode Not Found","Country Not Found"
"468","House Number Not Found","Street Not Found","Nagla Brahman","Uttar Pradesh","Postcode Not Found","India"
"469","House Number Not Found","Street Not Found","City Not Found","State Not Found","Postcode Not Found","Country Not Found"
"470","House Number Not Found","Street Not Found","City Not Found","State Not Found","Postcode Not Found","Country Not Found"
"471","House Number Not Found","Street Not Found","City Not Found","State Not Found","Postcode Not Found","Country Not Found"
"472","House Number Not Found","Street Not Found","City Not Found","State Not Found","Postcode Not Found","Country Not Found"
"473","House Number Not Found","Street Not Found","City Not Found","State Not Found","Postcode Not Found","Country Not Found"
"474","49","Buschblick","Kiel","Schleswig-Holstein","24159","Germany"
"475","House Number Not Found","Street Not Found","City Not Found","State Not Found","Postcode Not Found","Country Not Found"
"476","House Number Not Found","national route 403","Iiyama","Nagano Prefecture","389-2352","Japan"
"477","House Number Not Found","Street Not Found","City Not Found","State Not Found","Postcode Not Found","Country Not Found"
"478","House Number Not Found","Street Not Found","City Not Found","State Not Found","Postcode Not Found","Country Not Found"
"479","House Number Not Found","Street Not Found","Lewiston","Wisconsin","Postcode Not Found","United States of America"
"480","House Number Not Found","Street Not Found","Killeter","Northern Ireland","Postcode Not Found","United Kingdom"
"481","House Number Not Found","Street Not Found","City Not Found","State Not Found","Postcode Not Found","Country Not Found"
"482","House Number Not Found","Street Not Found","City Not Found","Texas","77831","United States of America"
"483","House Number Not Found","Street Not Found","Kisvarsány","Great Plain and North","4811","Hungary"
"484","House Number Not Found","Street Not Found","City of Cambridge","Ontario","N3H 4R8","Canada"
"485","House Number Not Found","Street Not Found","Harztor","Thuringia","99768","Germany"
"486","House Number Not Found","Street Not Found","District of Snina","Region of Prešov","Postcode Not Found","Slovakia"
"487","House Number Not Found","Arima-kaido","Kobe","Hyogo Prefecture","651-1112","Japan"
"488","House Number Not Found","Street Not Found","Takamatsu","Kagawa Prefecture","769-0101","Japan"
"489","House Number Not Found","Komagome Ginza-dori","Kita","Tokyo","114-0015","Japan"
"490","House Number Not Found","Street Not Found","City Not Found","State Not Found","Postcode Not Found","Bulgaria"
"491","House Number Not Found","Street Not Found","District of Košice I","Region of Košice","04412","Slovakia"
"492","House Number Not Found","Street Not Found","Krähenberg","Rhineland-Palatinate","66894","Germany"
"493","House Number Not Found","Street Not Found","City Not Found","State Not Found","Postcode Not Found","Country Not Found"
"494","House Number Not Found","Street Not Found","City Not Found","State Not Found","Postcode Not Found","Country Not Found"
"495","House Number Not Found","Street Not Found","City Not Found","State Not Found","Postcode Not Found","Country Not Found"
"496","House Number Not Found","Street Not Found","City Not Found","State Not Found","Postcode Not Found","Country Not Found"
"497","House Number Not Found","Street Not Found","City Not Found","State Not Found","Postcode Not Found","Country Not Found"
"498","House Number Not Found","Street Not Found","City Not Found","State Not Found","Postcode Not Found","Country Not Found"
"499","House Number Not Found","Street Not Found","Romny","Sumy Oblast","42000-42019","Ukraine"
"500","House Number Not Found","Street Not Found","City Not Found","State Not Found","Postcode Not Found","Country Not Found"
"501","House Number Not Found","Street Not Found","City Not Found","State Not Found","Postcode Not Found","Country Not Found"
"502","House Number Not Found","Street Not Found","City Not Found","State Not Found","Postcode Not Found","Country Not Found"
"503","House Number Not Found","Street Not Found","Joetsu","Niigata Prefecture","Postcode Not Found","Japan"
"504","House Number Not Found","Street Not Found","City Not Found","State Not Found","Postcode Not Found","Country Not Found"
"505","1","Klubnaya Street","Kutais","Krasnodar Krai","353271","Russia"
"506","House Number Not Found","Street Not Found","City Not Found","Kerala","679554","India"
"507","House Number Not Found","Street Not Found","City Not Found","State Not Found","Postcode Not Found","Country Not Found"
"508","House Number Not Found","National Route 268","Isa","Kagoshima Prefecture","Postcode Not Found","Japan"
"509","House Number Not Found","Street Not Found","City Not Found","State Not Found","Postcode Not Found","Country Not Found"
"510","House Number Not Found","Street Not Found","City Not Found","State Not Found","Postcode Not Found","Country Not Found"
"511","House Number Not Found","Street Not Found","City Not Found","State Not Found","Postcode Not Found","Country Not Found"
"512","House Number Not Found","Street Not Found","City Not Found","State Not Found","Postcode Not Found","Country Not Found"
"513","House Number Not Found","Street Not Found","Laborel","Auvergne-Rhône-Alpes","26560","France"
"514","House Number Not Found","Street Not Found","Basti","Uttar Pradesh","272001","India"
"515","House Number Not Found","Rue du Parc","L'Aigle","Normandy","61300","France"
"516","House Number Not Found","Street Not Found","City Not Found","State Not Found","Postcode Not Found","Country Not Found"
"517","House Number Not Found","Street Not Found","City Not Found","State Not Found","Postcode Not Found","Country Not Found"
"518","House Number Not Found","Street Not Found","City Not Found","Centre-Loire Valley","Postcode Not Found","France"
"519","House Number Not Found","Street Not Found","Sénas","Provence-Alpes-Côte d'Azur","13560","France"
"520","House Number Not Found","Street Not Found","Vrena","Södermanland County","Postcode Not Found","Sweden"
"521","House Number Not Found","Street Not Found","City Not Found","State Not Found","Postcode Not Found","Country Not Found"
"522","25","Rosengasse","Lanzenkirchen","Lower Austria","2821","Austria"
"523","House Number Not Found","Street Not Found","City Not Found","State Not Found","Postcode Not Found","Country Not Found"
"524","House Number Not Found","Bicester Road","Cherwell","England","OX26 5DS","United Kingdom"
"525","House Number Not Found","Street Not Found","City Not Found","State Not Found","Postcode Not Found","Country Not Found"
"526","House Number Not Found","Street Not Found","City Not Found","Centre-Loire Valley","Postcode Not Found","France"
"527","16","Rue Maine","Le Teilleul","Normandy","50640","France"
"528","House Number Not Found","Street Not Found","Leedey","Oklahoma","73654","United States of America"
"529","House Number Not Found","Street Not Found","Pretoria","Gauteng","0035","South Africa"
"530","House Number Not Found","Street Not Found","The Municipal District of Muinebeag","State Not Found","Postcode Not Found","Ireland"
"531","House Number Not Found","Street Not Found","Wolf Springs","Alabama","35672","United States of America"
"532","House Number Not Found","Street Not Found","Leonivka","Chernihiv Oblast","15442","Ukraine"
"533","House Number Not Found","Street Not Found","Sergines","Bourgogne-Franche-Comté","89140","France"
"534","House Number Not Found","Street Not Found","Mettet","Wallonia","5640","Belgium"
"535","House Number Not Found","Street Not Found","Ditsobotla Local Municipality","North West","0348","South Africa"
"536","House Number Not Found","Street Not Found","City Not Found","State Not Found","Postcode Not Found","Country Not Found"
"537","House Number Not Found","Street Not Found","The Municipal District of Adare — Rathkeale","State Not Found","Postcode Not Found","Ireland"
"538","House Number Not Found","Nauener Straße","Fehrbellin","Brandenburg","16833","Germany"
"539","House Number Not Found","Street Not Found","City Not Found","State Not Found","Postcode Not Found","Country Not Found"
"540","House Number Not Found","Premyslova","Lysá nad Labem","Central Bohemia","289 22","Czech Republic"
"541","House Number Not Found","Street Not Found","Piney End Resort","Missouri","65476","United States of America"
"542","House Number Not Found","Street Not Found","Klocki","Latgale","LV-5456","Latvia"
"543","House Number Not Found","Street Not Found","City Not Found","State Not Found","Postcode Not Found","Country Not Found"
"544","House Number Not Found","Street Not Found","Lohawat","Rajasthan","342302","India"
"545","House Number Not Found","Street Not Found","Lorton","Virginia","22079","United States of America"
"546","House Number Not Found","Street Not Found","San Miguel de Salinas","Valencian Community","03193","Spain"
"547","House Number Not Found","Street Not Found","Lost City","Oklahoma","74441","United States of America"
"548","House Number Not Found","Street Not Found","City Not Found","Kentucky","Postcode Not Found","United States of America"
"549","10","Street Not Found","Wrzeczko","Lódz Voivodeship","99-420","Poland"
"550","House Number Not Found","Street Not Found","City Not Found","State Not Found","Postcode Not Found","Country Not Found"
"551","House Number Not Found","Street Not Found","Saint-Vincent-du-Lorouër","Pays de la Loire","72150","France"
"552","House Number Not Found","Street Not Found","City Not Found","State Not Found","Postcode Not Found","Country Not Found"
"553","House Number Not Found","Street Not Found","Kunming","Yunnan","652200","China"
"554","House Number Not Found","Street Not Found","Källna","Skåne County","26572","Sweden"
"555","House Number Not Found","Street Not Found","Savitaipale","Southern Finland","54800","Finland"
"556","House Number Not Found","Rue Henri Genard","Vonnas","Auvergne-Rhône-Alpes","01540","France"
"557","House Number Not Found","Street Not Found","City Not Found","State Not Found","Postcode Not Found","Country Not Found"
"558","House Number Not Found","Street Not Found","City Not Found","State Not Found","Postcode Not Found","Country Not Found"
"559","House Number Not Found","Street Not Found","City Not Found","State Not Found","Postcode Not Found","Country Not Found"
"560","House Number Not Found","Street Not Found","City Not Found","State Not Found","Postcode Not Found","Country Not Found"
"561","House Number Not Found","Street Not Found","uMhlathuze Local Municipality","KwaZulu-Natal","Postcode Not Found","South Africa"
"562","House Number Not Found","Street Not Found","City Not Found","Bihar","847203","India"
"563","House Number Not Found","Street Not Found","Bangunsari","East Java","Postcode Not Found","Indonesia"
"564","23","Calle del Siete de Julio","Madrid","Community of Madrid","28012","Spain"
"565","House Number Not Found","Street Not Found","City Not Found","State Not Found","Postcode Not Found","Country Not Found"
"566","House Number Not Found","Street Not Found","Gümüs Yeniköy","Aydin","09700","Turkey"
"567","House Number Not Found","Street Not Found","City Not Found","State Not Found","Postcode Not Found","Country Not Found"
"568","House Number Not Found","Street Not Found","City Not Found","State Not Found","Postcode Not Found","Country Not Found"
"569","House Number Not Found","Street Not Found","City Not Found","State Not Found","Postcode Not Found","Country Not Found"
"570","House Number Not Found","Street Not Found","Pierce Canyon Crossing","New Mexico","Postcode Not Found","United States of America"
"571","House Number Not Found","Street Not Found","City Not Found","State Not Found","Postcode Not Found","Country Not Found"
"572","House Number Not Found","Street Not Found","Malampaka","Simiyu","Postcode Not Found","Tanzania"
"573","House Number Not Found","Street Not Found","City Not Found","State Not Found","Postcode Not Found","Country Not Found"
"574","House Number Not Found","Street Not Found","City Not Found","State Not Found","Postcode Not Found","Country Not Found"
"575","House Number Not Found","Street Not Found","City Not Found","State Not Found","Postcode Not Found","Country Not Found"
"576","House Number Not Found","Street Not Found","City Not Found","State Not Found","Postcode Not Found","Country Not Found"
"577","House Number Not Found","Street Not Found","City Not Found","State Not Found","Postcode Not Found","Country Not Found"
"578","House Number Not Found","Street Not Found","City Not Found","State Not Found","Postcode Not Found","Country Not Found"
"579","House Number Not Found","<U+0443><U+043B><U+0438><U+0446><U+0430> <U+0411><U+0440><U+0430><U+0442><U+044C><U+0435><U+0432> <U+0413><U+0443><U+0440><U+0442><U+0435><U+0435><U+0432><U+044B><U+0445>","Iki Burul","Republic of Kalmykia","359130","Russia"
"580","House Number Not Found","Street Not Found","City Not Found","State Not Found","Postcode Not Found","Country Not Found"
"581","House Number Not Found","State Highway 137","Newport","Nebraska","68759","United States of America"
"582","House Number Not Found","Street Not Found","Hillested","Region Zealand","Postcode Not Found","Denmark"
"583","House Number Not Found","Street Not Found","City Not Found","State Not Found","Postcode Not Found","Country Not Found"
"584","House Number Not Found","Street Not Found","Marília","São Paulo","17519-341","Brazil"
"585","House Number Not Found","Street Not Found","Summit","Iowa","52227","United States of America"
"586","House Number Not Found","Street Not Found","City Not Found","State Not Found","Postcode Not Found","Country Not Found"
"587","39","Rue de la Libération","Marmande","New Aquitaine","47200","France"
"588","House Number Not Found","Street Not Found","City Not Found","State Not Found","Postcode Not Found","Country Not Found"
"589","House Number Not Found","Street Not Found","Castaway Cove","Tennessee","37777","United States of America"
"590","House Number Not Found","Street Not Found","Corrèze","New Aquitaine","19800","France"
"591","House Number Not Found","Street Not Found","City Not Found","State Not Found","Postcode Not Found","Country Not Found"
"592","House Number Not Found","Street Not Found","Garching an der Alz","Bavaria","84518","Germany"
"593","37","Street Not Found","Spitzenberg","Upper Austria","5270","Austria"
"594","House Number Not Found","Street Not Found","City Not Found","State Not Found","Postcode Not Found","Country Not Found"
"595","House Number Not Found","Street Not Found","City Not Found","Adamawa","Postcode Not Found","Nigeria"
"596","House Number Not Found","Street Not Found","City Not Found","State Not Found","Postcode Not Found","Country Not Found"
"597","House Number Not Found","Street Not Found","City Not Found","State Not Found","Postcode Not Found","Country Not Found"
"598","House Number Not Found","arthur nagimesi","Mbale","Mbale","MBALE","Uganda"
"599","House Number Not Found","Street Not Found","City Not Found","State Not Found","Postcode Not Found","Country Not Found"
"600","House Number Not Found","Street Not Found","City Not Found","State Not Found","Postcode Not Found","Country Not Found"
"601","House Number Not Found","Gang Remaja","Jakarta Special Capital Region","State Not Found","13420","Indonesia"
"602","House Number Not Found","Street Not Found","Fürstenberg/Havel","Brandenburg","16798","Germany"
"603","36","Hubelweg","Tafers","Fribourg","1712","Switzerland"
"604","House Number Not Found","Street Not Found","Mern","Region Zealand","4735","Denmark"
"605","House Number Not Found","Street Not Found","City Not Found","State Not Found","Postcode Not Found","Country Not Found"
"606","House Number Not Found","Street Not Found","Sahson","Uttar Pradesh","Postcode Not Found","India"
"607","House Number Not Found","Via Maddalena","Messina","Sicily","98123","Italy"
"608","65","Karl-Marx-Straße","Schwarzatal","Thuringia","98746","Germany"
"609","House Number Not Found","Street Not Found","Mur-sur-Allier","Auvergne-Rhône-Alpes","63111","France"
"610","House Number Not Found","Street Not Found","City Not Found","State Not Found","Postcode Not Found","Country Not Found"
"611","House Number Not Found","Street Not Found","Mau","Uttar Pradesh","275101","India"
"612","House Number Not Found","Street Not Found","City Not Found","State Not Found","Postcode Not Found","Country Not Found"
"613","54","Sycamore Crescent","Lackenby","England","TS6 0DP","United Kingdom"
"614","House Number Not Found","Street Not Found","City Not Found","Wisconsin","53580","United States of America"
"615","House Number Not Found","Street Not Found","City Not Found","State Not Found","Postcode Not Found","Country Not Found"
"616","House Number Not Found","Street Not Found","Matsue","Shimane Prefecture","684-0004","Japan"
"617","House Number Not Found","Street Not Found","Mike","Transdanubia","7512","Hungary"
"618","House Number Not Found","Street Not Found","Grad Lobor","State Not Found","49253","Croatia"
"619","House Number Not Found","Street Not Found","City Not Found","State Not Found","Postcode Not Found","Country Not Found"
"620","House Number Not Found","Street Not Found","Hopewell","Arkansas","72137","United States of America"
"621","House Number Not Found","Street Not Found","Nagoya","Aichi Prefecture","457-0822","Japan"
"622","House Number Not Found","Street Not Found","Mineo","Sicily","95044","Italy"
"623","House Number Not Found","Street Not Found","City Not Found","State Not Found","Postcode Not Found","Country Not Found"
"624","House Number Not Found","Street Not Found","Sopron","Transdanubia","9400","Hungary"
"625","House Number Not Found","Street Not Found","City Not Found","State Not Found","Postcode Not Found","Country Not Found"
"626","House Number Not Found","Street Not Found","Biksti","Zemgale","Postcode Not Found","Latvia"
"627","1813","Hyevegen","Hyen","Sogn og Fjordane","6829","Norway"
"628","House Number Not Found","Street Not Found","Mociu","Cluj","407428","Romania"
"629","House Number Not Found","Street Not Found","Modoc","Kansas","67871","United States of America"
"630","148","Ingahape Road","City Not Found","Taranaki","4672","New Zealand"
"631","House Number Not Found","Street Not Found","Molina de Segura","Region of Murcia","30509","Spain"
"632","House Number Not Found","Street Not Found","City Not Found","State Not Found","Postcode Not Found","Country Not Found"
"633","House Number Not Found","Street Not Found","City Not Found","Texas","Postcode Not Found","United States of America"
"634","House Number Not Found","Street Not Found","Cabarrus","North Carolina","28107","United States of America"
"635","House Number Not Found","Street Not Found","City Not Found","State Not Found","Postcode Not Found","Country Not Found"
"636","House Number Not Found","Via Roma","Pollenza","Marche","Postcode Not Found","Italy"
"637","House Number Not Found","Street Not Found","Tréville","Occitania","11400","France"
"638","House Number Not Found","Street Not Found","Thoury","Centre-Loire Valley","41220","France"
"639","House Number Not Found","Street Not Found","City Not Found","State Not Found","Postcode Not Found","Country Not Found"
"640","House Number Not Found","Street Not Found","City Not Found","North Carolina","Postcode Not Found","United States of America"
"641","House Number Not Found","Street Not Found","The Municipal District of Cahir — Cashel","State Not Found","Postcode Not Found","Ireland"
"642","House Number Not Found","Street Not Found","City Not Found","State Not Found","Postcode Not Found","Country Not Found"
"643","House Number Not Found","Street Not Found","City Not Found","State Not Found","Postcode Not Found","Country Not Found"
"644","253","Street Not Found","Morávka","Moravia-Silesia","73904","Czech Republic"
"645","House Number Not Found","Street Not Found","Mornans","Auvergne-Rhône-Alpes","26460","France"
"646","House Number Not Found","Street Not Found","Dilling","Østfold","1596","Norway"
"647","House Number Not Found","Street Not Found","City Not Found","State Not Found","Postcode Not Found","Country Not Found"
"648","House Number Not Found","Street Not Found","Villanova Monferrato","Piemont","13010","Italy"
"649","House Number Not Found","Street Not Found","City Not Found","State Not Found","Postcode Not Found","Country Not Found"
"650","House Number Not Found","Street Not Found","City Not Found","State Not Found","Postcode Not Found","Country Not Found"
"651","House Number Not Found","Street Not Found","Guillaumes","Provence-Alpes-Côte d'Azur","06470","France"
"652","House Number Not Found","Street Not Found","City Not Found","State Not Found","Postcode Not Found","Country Not Found"
"653","House Number Not Found","Street Not Found","City Not Found","State Not Found","Postcode Not Found","Country Not Found"
"654","House Number Not Found","Street Not Found","City Not Found","State Not Found","Postcode Not Found","Country Not Found"
"655","House Number Not Found","Street Not Found","City Not Found","State Not Found","Postcode Not Found","Country Not Found"
"656","House Number Not Found","Street Not Found","Murchison","Victoria","3610","Australia"
"657","House Number Not Found","Street Not Found","Hamlin","Kentucky","42046","United States of America"
"658","House Number Not Found","Street Not Found","City Not Found","State Not Found","Postcode Not Found","Country Not Found"
"659","House Number Not Found","Street Not Found","Ahmedabad","Gujarat","382345","India"
"660","House Number Not Found","Street Not Found","City Not Found","State Not Found","Postcode Not Found","Country Not Found"
"661","House Number Not Found","Street Not Found","Nagai","Yamagata Prefecture","993-0014","Japan"
"662","House Number Not Found","Street Not Found","City Not Found","State Not Found","Postcode Not Found","Country Not Found"
"663","House Number Not Found","stará cesta","District of Liptovský Mikuláš","Region of Žilina","032 23","Slovakia"
"664","House Number Not Found","Street Not Found","City Not Found","State Not Found","Postcode Not Found","Country Not Found"
"665","House Number Not Found","Street Not Found","Nakhon Pathom","Nakhon Pathom Province","73000","Thailand"
"666","House Number Not Found","Street Not Found","City Not Found","State Not Found","Postcode Not Found","Country Not Found"
"667","House Number Not Found","Street Not Found","City Not Found","State Not Found","Postcode Not Found","Country Not Found"
"668","House Number Not Found","Street Not Found","Hickory Hill","Maryland","20662","United States of America"
"669","House Number Not Found","Street Not Found","City Not Found","State Not Found","Postcode Not Found","Country Not Found"
"670","House Number Not Found","Street Not Found","City Not Found","State Not Found","Postcode Not Found","Country Not Found"
"671","House Number Not Found","Street Not Found","City Not Found","State Not Found","Postcode Not Found","Country Not Found"
"672","House Number Not Found","Arygle Street","Sydney","New South Wales","2570","Australia"
"673","House Number Not Found","Strada dei Tre Ponti","Narni","Umbria","05035","Italy"
"674","House Number Not Found","Street Not Found","La Foa","State Not Found","98880","France"
"675","House Number Not Found","Street Not Found","City Not Found","State Not Found","Postcode Not Found","Country Not Found"
"676","House Number Not Found","Street Not Found","Nomi","Ishikawa Prefecture","929-0113","Japan"
"677","House Number Not Found","Street Not Found","City Not Found","State Not Found","Postcode Not Found","Country Not Found"
"678","House Number Not Found","Street Not Found","City Not Found","State Not Found","Postcode Not Found","Country Not Found"
"679","House Number Not Found","Street Not Found","City Not Found","Courland","LV-3434","Latvia"
"680","House Number Not Found","Bleckenaustraße","Schwangau","Bavaria","87645","Germany"
"681","House Number Not Found","Street Not Found","New Concord","Ohio","43762","United States of America"
"682","House Number Not Found","Street Not Found","City Not Found","State Not Found","Postcode Not Found","Country Not Found"
"683","House Number Not Found","Street Not Found","New Orleans","Louisiana","70125","United States of America"
"684","House Number Not Found","Street Not Found","City Not Found","State Not Found","Postcode Not Found","Country Not Found"
"685","House Number Not Found","Street Not Found","City Not Found","State Not Found","Postcode Not Found","Country Not Found"
"686","House Number Not Found","Street Not Found","Coutances","Normandy","50200","France"
"687","9","<U+042E><U+0436><U+043D><U+0430><U+044F> <U+0443><U+043B><U+0438><U+0446><U+0430>","<U+041D><U+0438><U+043A><U+043E><U+043B><U+0430><U+0435><U+0432><U+043A><U+0430>","Pavlodar Region","Postcode Not Found","Kazakhstan"
"688","House Number Not Found","<U+041C><U+0430><U+0441><U+0442><U+0435><U+0440> 15 <U+043A><U+043C>","City Not Found","Moscow Oblast","141895","Russia"
"689","House Number Not Found","Street Not Found","City Not Found","State Not Found","Postcode Not Found","Country Not Found"
"690","House Number Not Found","Street Not Found","City Not Found","Shaanxi","723000","China"
"691","House Number Not Found","Street Not Found","Yamaguchi","Yamaguchi Prefecture","Postcode Not Found","Japan"
"692","House Number Not Found","Street Not Found","City Not Found","State Not Found","Postcode Not Found","Country Not Found"
"693","House Number Not Found","Street Not Found","Winslow Hill","Maine","04555","United States of America"
"694","House Number Not Found","Street Not Found","Noblesville","Indiana","46062","United States of America"
"695","House Number Not Found","<U+7530><U+5DDD><U+76F4><U+65B9><U+7DDA>","Noogata","Fukuoka Prefecture","807-1313","Japan"
"696","House Number Not Found","Street Not Found","City Not Found","State Not Found","Postcode Not Found","Country Not Found"
"697","House Number Not Found","Street Not Found","Norfork Village","Arkansas","72653:72658","United States of America"
"698","House Number Not Found","Street Not Found","City Not Found","State Not Found","Postcode Not Found","Country Not Found"
"699","House Number Not Found","Street Not Found","Noventa Vicentina","Veneto","36025","Italy"
"700","House Number Not Found","Street Not Found","City Not Found","State Not Found","Postcode Not Found","Country Not Found"
"701","19","<U+0443><U+043B><U+0438><U+0446><U+0430> <U+0414><U+0435><U+0440><U+0436><U+0430><U+0432><U+0438><U+043D><U+0430>","Veliky Novgorod","Novgorod Oblast","173020","Russia"
"702","House Number Not Found","Street Not Found","City Not Found","State Not Found","Postcode Not Found","Country Not Found"
"703","House Number Not Found","Street Not Found","City Not Found","State Not Found","Postcode Not Found","Country Not Found"
"704","House Number Not Found","Street Not Found","City Not Found","State Not Found","Postcode Not Found","Country Not Found"
"705","House Number Not Found","Street Not Found","Bell-lloc d'Urgell","Catalonia","Postcode Not Found","Spain"
"706","House Number Not Found","<U+7F8E><U+5504><U+5BCC><U+826F><U+91CE><U+7DDA>","Bibai","Hokkaido Prefecture","Postcode Not Found","Japan"
"707","House Number Not Found","Lanmadaw 1 Road","Nyaung-U Township","Mandalay","10511","Myanmar"
"708","House Number Not Found","Rákóczi utca","Nyírábrány","Great Plain and North","4264","Hungary"
"709","House Number Not Found","Street Not Found","City Not Found","State Not Found","Postcode Not Found","Country Not Found"
"710","44","Bramscher Straße","Osnabrück","Lower Saxony","49088","Germany"
"711","House Number Not Found","Street Not Found","City Not Found","State Not Found","94634","Estonia"
"712","House Number Not Found","Street Not Found","Máriapócs","Great Plain and North","4326","Hungary"
"713","House Number Not Found","<U+5C0F><U+57CE><U+725B><U+6D25><U+7DDA>","Ogi","Saga Prefecture","8450021","Japan"
"714","House Number Not Found","Street Not Found","Alba Iulia","Alba","510146","Romania"
"715","House Number Not Found","Street Not Found","City Not Found","State Not Found","Postcode Not Found","Country Not Found"
"716","House Number Not Found","Street Not Found","Fuente Obejuna","Andalusia","Postcode Not Found","Spain"
"717","House Number Not Found","<U+718A><U+8C37><U+5150><U+7389><U+7DDA>","Misato","Saitama Prefecture","367-0102","Japan"
"718","House Number Not Found","<U+672C><U+90F7><U+6771><U+6D5C><U+8C37><U+7DDA>","Tambasasayama","Hyogo Prefecture","669-2341","Japan"
"719","House Number Not Found","Street Not Found","<U+0411><U+043E><U+0440><U+043E><U+0445><U+0456><U+0432><U+0441><U+044C><U+043A><U+0430> <U+0441><U+0456><U+043B><U+044C><U+0441><U+044C><U+043A><U+0430> <U+0440><U+0430><U+0434><U+0430>","Volyn Oblast","45245","Ukraine"
"720","House Number Not Found","Bisseler Straße","Großenkneten","Lower Saxony","26197","Germany"
"721","House Number Not Found","Street Not Found","City Not Found","State Not Found","Postcode Not Found","Country Not Found"
"722","House Number Not Found","Street Not Found","Olivenza","Extremadura","06100","Spain"
"723","House Number Not Found","Street Not Found","Alarcón","Castile-La Mancha","16214","Spain"
"724","House Number Not Found","Street Not Found","City Not Found","State Not Found","Postcode Not Found","Country Not Found"
"725","House Number Not Found","Street Not Found","Orgueil","Occitania","82370","France"
"726","House Number Not Found","Street Not Found","Orlando","Florida","32803-4806","United States of America"
"727","2A","Rue Saint-Georges","Ornans","Bourgogne-Franche-Comté","25290","France"
"728","House Number Not Found","Street Not Found","Durbach","Baden-Württemberg","77770","Germany"
"729","House Number Not Found","Street Not Found","Orvinio","Lazio","Postcode Not Found","Italy"
"730","House Number Not Found","Gamle Kragerøvei","Kragerø","Telemark","3770","Norway"
"731","House Number Not Found","Street Not Found","Tendo","Yamagata Prefecture","999-3511","Japan"
"732","House Number Not Found","Street Not Found","Imes","Kansas","66079","United States of America"
"733","House Number Not Found","Street Not Found","City Not Found","State Not Found","Postcode Not Found","Country Not Found"
"734","House Number Not Found","Street Not Found","City Not Found","State Not Found","Postcode Not Found","Country Not Found"
"735","House Number Not Found","Street Not Found","City Not Found","State Not Found","Postcode Not Found","Country Not Found"
"736","House Number Not Found","Street Not Found","City Not Found","State Not Found","Postcode Not Found","Country Not Found"
"737","House Number Not Found","Street Not Found","City Not Found","State Not Found","Postcode Not Found","Country Not Found"
"738","House Number Not Found","Street Not Found","Oviedo","Asturias","33424","Spain"
"739","House Number Not Found","Street Not Found","Ovruch","Zhytomyr Oblast","11101","Ukraine"
"740","House Number Not Found","Street Not Found","Pacula","Hidalgo","Postcode Not Found","Mexico"
"741","House Number Not Found","Street Not Found","City Not Found","Utena County","29330","Lithuania"
"742","House Number Not Found","Manila North Road","Cabugao","Ilocos Sur","2732","Philippines"
"743","House Number Not Found","Street Not Found","Clarkburg","Mississippi","Postcode Not Found","United States of America"
"744","House Number Not Found","Street Not Found","City Not Found","State Not Found","Postcode Not Found","Country Not Found"
"745","House Number Not Found","Street Not Found","City Not Found","State Not Found","Postcode Not Found","Country Not Found"
"746","House Number Not Found","Street Not Found","Dodge City","Missouri","63461","United States of America"
"747","House Number Not Found","Street Not Found","Honolulu","Hawaii","96848","United States of America"
"748","House Number Not Found","Street Not Found","San Fernando","Pampanga","2015","Philippines"
"749","House Number Not Found","Street Not Found","City Not Found","State Not Found","Postcode Not Found","Country Not Found"
"750","House Number Not Found","Street Not Found","Paragould","Arkansas","72450","United States of America"
"751","House Number Not Found","Street Not Found","City Not Found","State Not Found","Postcode Not Found","Country Not Found"
"752","House Number Not Found","Street Not Found","City Not Found","State Not Found","Postcode Not Found","Country Not Found"
"753","House Number Not Found","Street Not Found","Park Forest","Illinois","60466","United States of America"
"754","House Number Not Found","Street Not Found","City Not Found","State Not Found","Postcode Not Found","Country Not Found"
"755","House Number Not Found","Street Not Found","Muzaffarpur","Bihar","842001","India"
"756","House Number Not Found","Street Not Found","City Not Found","New Mexico","Postcode Not Found","United States of America"
"757","House Number Not Found","Street Not Found","City Not Found","State Not Found","Postcode Not Found","Country Not Found"
"758","House Number Not Found","Street Not Found","City Not Found","State Not Found","Postcode Not Found","Country Not Found"
"759","House Number Not Found","Street Not Found","Patti","Sicily","98066","Italy"
"760","House Number Not Found","Street Not Found","City Not Found","State Not Found","Postcode Not Found","Country Not Found"
"761","House Number Not Found","Street Not Found","City Not Found","State Not Found","Postcode Not Found","Country Not Found"
"762","House Number Not Found","Street Not Found","Pavlodar","Pavlodar Region","14006","Kazakhstan"
"763","House Number Not Found","<U+041F><U+043E><U+043F><U+043E><U+0432><U+0430> <U+0432><U+0443><U+043B><U+0438><U+0446><U+044F>","City Not Found","Dnipropetrovsk Oblast","51411","Ukraine"
"764","House Number Not Found","Street Not Found","City Not Found","State Not Found","Postcode Not Found","Country Not Found"
"765","House Number Not Found","Street Not Found","City Not Found","State Not Found","Postcode Not Found","Country Not Found"
"766","House Number Not Found","Street Not Found","Brownvale","Alberta","T0H 0E0","Canada"
"767","House Number Not Found","Street Not Found","Brakel","North Rhine-Westphalia","33034","Germany"
"768","House Number Not Found","Smith Street","Peekskill","New York","10566","United States of America"
"769","House Number Not Found","Street Not Found","City Not Found","State Not Found","Postcode Not Found","Country Not Found"
"770","House Number Not Found","Street Not Found","City Not Found","State Not Found","Postcode Not Found","Country Not Found"
"771","House Number Not Found","Street Not Found","City Not Found","State Not Found","Postcode Not Found","Country Not Found"
"772","5A","Crieff Road","Perth","Scotland","PH1 5AF","United Kingdom"
"773","House Number Not Found","Street Not Found","City Not Found","State Not Found","Postcode Not Found","Country Not Found"
"774","House Number Not Found","Street Not Found","City Not Found","State Not Found","Postcode Not Found","Country Not Found"
"775","House Number Not Found","Street Not Found","City Not Found","State Not Found","Postcode Not Found","Country Not Found"
"776","House Number Not Found","Street Not Found","Bidwell","Tennessee","37144","United States of America"
"777","House Number Not Found","Street Not Found","The Municipal District of Mullingar — Kinnegad","State Not Found","N91 P9D2","Ireland"
"778","House Number Not Found","Street Not Found","City Not Found","State Not Found","Postcode Not Found","Country Not Found"
"779","House Number Not Found","Street Not Found","City Not Found","State Not Found","Postcode Not Found","Country Not Found"
"780","House Number Not Found","Street Not Found","Tonle Bet","Tbong Khmum","3000","Cambodia"
"781","House Number Not Found","Street Not Found","Ð<U+1EA1>i Phong","Quang Nam Province","Postcode Not Found","Vietnam"
"782","23","Via Cavulla","Fontanelice","Emilia-Romagna","40025","Italy"
"783","House Number Not Found","Street Not Found","Muga de Sayago","Castile and León","Postcode Not Found","Spain"
"784","House Number Not Found","Street Not Found","Pilistvere","State Not Found","70501","Estonia"
"785","House Number Not Found","Street Not Found","City Not Found","State Not Found","Postcode Not Found","Country Not Found"
"786","House Number Not Found","Street Not Found","City Not Found","State Not Found","Postcode Not Found","Country Not Found"
"787","House Number Not Found","Street Not Found","City Not Found","State Not Found","Postcode Not Found","Country Not Found"
"788","House Number Not Found","Street Not Found","City Not Found","State Not Found","Postcode Not Found","Country Not Found"
"789","House Number Not Found","Street Not Found","City Not Found","Georgia","31072","United States of America"
"790","House Number Not Found","Street Not Found","City Not Found","Texas","77861","United States of America"
"791","House Number Not Found","Street Not Found","Buzau","Buzau","127043","Romania"
"792","House Number Not Found","Street Not Found","Litomerice","Northwest","41201","Czech Republic"
"793","House Number Not Found","Nokor Reach (Street 80)","Boeung Kak Community","Phnom Penh","12202","Cambodia"
"794","House Number Not Found","Cretzschwitz","Gera","Thuringia","07554","Germany"
"795","House Number Not Found","Street Not Found","City Not Found","State Not Found","Postcode Not Found","Country Not Found"
"796","61","Snefjellåveien","City Not Found","Nordland","8616","Norway"
"797","House Number Not Found","Garth Estate","Pontllyfni","Wales","LL54 5ES","United Kingdom"
"798","House Number Not Found","Street Not Found","City Not Found","New Mexico","88130","United States of America"
"799","House Number Not Found","Street Not Found","Nossa Senhora da Tourega e Nossa Senhora de Guadalupe","Alentejo","7000-223","Portugal"
"800","House Number Not Found","Street Not Found","City Not Found","State Not Found","Postcode Not Found","Country Not Found"
"801","2","Street Not Found","Gstocket","Upper Austria","4070","Austria"
"802","16","Street Not Found","Príbram","Central Bohemia","26101","Czech Republic"
"803","House Number Not Found","Street Not Found","Harwood","Ohio","45717","United States of America"
"804","House Number Not Found","Street Not Found","Camuñas","Castile-La Mancha","13650","Spain"
"805","House Number Not Found","Street Not Found","City Not Found","State Not Found","Postcode Not Found","Country Not Found"
"806","12","Street Not Found","Gostkowo","Masovian Voivodeship","07-215","Poland"
"807","House Number Not Found","Street Not Found","City Not Found","State Not Found","Postcode Not Found","Country Not Found"
"808","House Number Not Found","Street Not Found","Jacuizinho","Rio Grande do Sul","Postcode Not Found","Brazil"
"809","House Number Not Found","Street Not Found","City Not Found","State Not Found","Postcode Not Found","Country Not Found"
"810","House Number Not Found","Street Not Found","City Not Found","State Not Found","Postcode Not Found","Country Not Found"
"811","House Number Not Found","Street Not Found","Qacha's Nek","State Not Found","600","Lesotho"
"812","House Number Not Found","Street Not Found","City Not Found","State Not Found","Postcode Not Found","Country Not Found"
"813","House Number Not Found","Street Not Found","Anna","Valencian Community","46810","Spain"
"814","House Number Not Found","Street Not Found","City Not Found","State Not Found","Postcode Not Found","Country Not Found"
"815","House Number Not Found","Street Not Found","Quinçay","New Aquitaine","86190","France"
"816","House Number Not Found","Street Not Found","Raco","Tucumán","T4103","Argentina"
"817","House Number Not Found","Street Not Found","City Not Found","State Not Found","Postcode Not Found","Country Not Found"
"818","House Number Not Found","Street Not Found","City Not Found","State Not Found","Postcode Not Found","Country Not Found"
"819","78","<U+0443><U+043B><U+0438><U+0446><U+0430> <U+041A><U+0430><U+0440><U+043B><U+0430> <U+041C><U+0430><U+0440><U+043A><U+0441><U+0430>","<U+0433><U+043E><U+0440><U+043E><U+0434><U+0441><U+043A><U+043E><U+0435> <U+043F><U+043E><U+0441><U+0435><U+043B><U+0435><U+043D><U+0438><U+0435> <U+041D><U+043E><U+0432><U+043E><U+0441><U+0438><U+043B><U+044C>","Oryol Oblast","303500","Russia"
"820","House Number Not Found","Street Not Found","City Not Found","Uttar Pradesh","Postcode Not Found","India"
"821","House Number Not Found","Street Not Found","City Not Found","State Not Found","Postcode Not Found","Country Not Found"
"822","11,13","An der Becke","Velen","North Rhine-Westphalia","46342","Germany"
"823","House Number Not Found","Street Not Found","City Not Found","State Not Found","Postcode Not Found","Country Not Found"
"824","House Number Not Found","Street Not Found","Zinapécuaro de Figueroa","Michoacán","61250","Mexico"
"825","House Number Not Found","Street Not Found","City Not Found","State Not Found","Postcode Not Found","Country Not Found"
"826","House Number Not Found","Street Not Found","City Not Found","Hebei","053900","China"
"827","House Number Not Found","Street Not Found","City Not Found","State Not Found","Postcode Not Found","Country Not Found"
"828","House Number Not Found","Street Not Found","City Not Found","State Not Found","Postcode Not Found","Country Not Found"
"829","92","Street Not Found","Ratyn","Greater Poland Voivodeship","62-406","Poland"
"830","House Number Not Found","Street Not Found","City Not Found","California","Postcode Not Found","United States of America"
"831","House Number Not Found","Street Not Found","Santas Martas","Castile and León","24339","Spain"
"832","House Number Not Found","Street Not Found","City Not Found","Central Java","59219","Indonesia"
"833","47","Via Carlo Francesco Dotti","Cento","Emilia-Romagna","44045","Italy"
"834","House Number Not Found","Street Not Found","Tilisarao","San Luis","Postcode Not Found","Argentina"
"835","House Number Not Found","Street Not Found","City Not Found","State Not Found","Postcode Not Found","Country Not Found"
"836","House Number Not Found","Street Not Found","City Not Found","State Not Found","Postcode Not Found","Country Not Found"
"837","House Number Not Found","Street Not Found","City Not Found","State Not Found","Postcode Not Found","Country Not Found"
"838","House Number Not Found","Street Not Found","City Not Found","Haryana","123401","India"
"839","House Number Not Found","Street Not Found","City Not Found","North Carolina","Postcode Not Found","United States of America"
"840","House Number Not Found","Street Not Found","City Not Found","State Not Found","Postcode Not Found","Country Not Found"
"841","House Number Not Found","Street Not Found","Richardton","North Dakota","Postcode Not Found","United States of America"
"842","House Number Not Found","Street Not Found","City Not Found","State Not Found","Postcode Not Found","Country Not Found"
"843","House Number Not Found","Street Not Found","Richmond City","Virginia","23224","United States of America"
"844","House Number Not Found","Rua Coronel Nicolau Bley Neto","Rio Negro","Paraná","89300-000","Brazil"
"845","House Number Not Found","Street Not Found","Rivolta d'Adda","Lombardy","26027","Italy"
"846","House Number Not Found","Street Not Found","City Not Found","State Not Found","Postcode Not Found","Country Not Found"
"847","House Number Not Found","George Street","Rockhampton","Queensland","4700","Australia"
"848","House Number Not Found","Street Not Found","City Not Found","Aragon","22482","Spain"
"849","House Number Not Found","Street Not Found","Bad Rodach","Bavaria","96476","Germany"
"850","House Number Not Found","Street Not Found","City Not Found","Michigan","Postcode Not Found","United States of America"
"851","House Number Not Found","Street Not Found","City Not Found","England","TF6 6JX","United Kingdom"
"852","House Number Not Found","Street Not Found","Nemba","Northern Province","Postcode Not Found","Rwanda"
"853","House Number Not Found","Street Not Found","City Not Found","Laikipia","Postcode Not Found","Kenya"
"854","House Number Not Found","Street Not Found","Nachingwea","Lindi","Postcode Not Found","Tanzania"
"855","House Number Not Found","Street Not Found","Richky","Sumy Oblast","41832","Ukraine"
"856","House Number Not Found","Street Not Found","City Not Found","State Not Found","Postcode Not Found","Country Not Found"
"857","House Number Not Found","Street Not Found","City Not Found","State Not Found","Postcode Not Found","Country Not Found"
"858","35","Street Not Found","Dabrowa Luzycka","Lubusz Voivodeship","68-132","Poland"
"859","House Number Not Found","Street Not Found","Lespinasse","Occitania","31150","France"
"860","House Number Not Found","Street Not Found","Saint-Séverin","New Aquitaine","16390","France"
"861","House Number Not Found","Street Not Found","City Not Found","State Not Found","Postcode Not Found","Country Not Found"
"862","House Number Not Found","Fire Protection Way","Chemawa","Oregon","97309","United States of America"
"863","House Number Not Found","Street Not Found","Saint-Étienne-des-Oullières","Auvergne-Rhône-Alpes","69460","France"
"864","House Number Not Found","Street Not Found","Kuhfelde","Saxony-Anhalt","29416","Germany"
"865","House Number Not Found","Street Not Found","City Not Found","State Not Found","Postcode Not Found","Country Not Found"
"866","House Number Not Found","Street Not Found","San Juan Capistrano","California","92675","United States of America"
"867","House Number Not Found","Street Not Found","City Not Found","Marche","Postcode Not Found","Italy"
"868","House Number Not Found","Street Not Found","Punitaqui","Coquimbo Region","1890000","Chile"
"869","House Number Not Found","Street Not Found","City Not Found","State Not Found","Postcode Not Found","Country Not Found"
"870","House Number Not Found","Street Not Found","City Not Found","State Not Found","Postcode Not Found","Country Not Found"
"871","House Number Not Found","Street Not Found","City Not Found","State Not Found","Postcode Not Found","Country Not Found"
"872","House Number Not Found","Street Not Found","Santa Isabel","Santa Fe","S4200","Argentina"
"873","House Number Not Found","Street Not Found","Santa Lucía","San Juan","5411","Argentina"
"874","House Number Not Found","Street Not Found","São José do Rio Preto","São Paulo","15010-070","Brazil"
"875","House Number Not Found","Street Not Found","<U+0411><U+043E><U+043B><U+044C><U+0448><U+0435><U+043E><U+0437><U+0435><U+0440><U+0441><U+043A><U+043E><U+0435> <U+0441><U+0435><U+043B><U+044C><U+0441><U+043A><U+043E><U+0435> <U+043F><U+043E><U+0441><U+0435><U+043B><U+0435><U+043D><U+0438><U+0435>","Saratov Oblast","Postcode Not Found","Russia"
"876","House Number Not Found","<U+4E2D><U+91CE><U+5B50><U+5B89><U+7DDA> (<U+65E7><U+6771><U+6D77><U+9053>)","Hamamatsu","Shizuoka Prefecture","435-0042","Japan"
"877","House Number Not Found","Street Not Found","Trois-Villes","New Aquitaine","64470","France"
"878","House Number Not Found","Street Not Found","City Not Found","State Not Found","Postcode Not Found","Country Not Found"
"879","House Number Not Found","<U+9BE8><U+4E95><U+72ED><U+5C71><U+7DDA>","Sayama","Saitama Prefecture","350-1320","Japan"
"880","House Number Not Found","Street Not Found","Sazovice","Central Moravia","76301","Czech Republic"
"881","House Number Not Found","Street Not Found","Stargard","West Pomeranian Voivodeship","73-100","Poland"
"882","House Number Not Found","Street Not Found","Stoodley Corners","New York","12302","United States of America"
"883","House Number Not Found","Street Not Found","Salgen","Bavaria","87775","Germany"
"884","House Number Not Found","Street Not Found","City Not Found","Maine","04973","United States of America"
"885","House Number Not Found","Street Not Found","Yukari Seydiköy","Izmir","35410","Turkey"
"886","House Number Not Found","Street Not Found","City Not Found","State Not Found","Postcode Not Found","Country Not Found"
"887","House Number Not Found","Street Not Found","Bandung","West Java","40252","Indonesia"
"888","House Number Not Found","Street Not Found","City Not Found","State Not Found","Postcode Not Found","Country Not Found"
"889","House Number Not Found","Street Not Found","City Not Found","State Not Found","Postcode Not Found","Country Not Found"
"890","House Number Not Found","Avenida de Huesca","Sena","Aragon","22231","Spain"
"891","House Number Not Found","omagari bypass","Daisen","Akita Prefecture","0140047","Japan"
"892","House Number Not Found","Street Not Found","City Not Found","State Not Found","Postcode Not Found","Country Not Found"
"893","House Number Not Found","S<U+03AD><U+03C1><U+03C1>e<U+03C2> - <U+03A0>e<U+03B8>e<U+03BB><U+03B9><U+03BD><U+03CC><U+03C2>","City Not Found","Macedonia - Thrace","62124","Greece"
"894","House Number Not Found","Street Not Found","City Not Found","State Not Found","Postcode Not Found","Country Not Found"
"895","House Number Not Found","Street Not Found","Sete Lagoas","Minas Gerais","35700-184","Brazil"
"896","House Number Not Found","Street Not Found","Seville","Andalusia","41092","Spain"
"897","House Number Not Found","Street Not Found","Belgorod","Belgorod Oblast","308001","Russia"
"898","House Number Not Found","Street Not Found","Sfax","Sfax","3013","Tunisia"
"899","House Number Not Found","Street Not Found","City Not Found","State Not Found","Postcode Not Found","Country Not Found"
"900","House Number Not Found","Street Not Found","City Not Found","Virginia","22548","United States of America"
"901","House Number Not Found","Street Not Found","Amaranth","Ontario","L0N 1S4","Canada"
"902","House Number Not Found","Street Not Found","Gaya","Bihar","823001","India"
"903","House Number Not Found","Street Not Found","City Not Found","State Not Found","Postcode Not Found","Country Not Found"
"904","House Number Not Found","Street Not Found","City Not Found","State Not Found","Postcode Not Found","Country Not Found"
"905","House Number Not Found","Street Not Found","Changchun City","Jilin","130600","China"
"906","House Number Not Found","Street Not Found","Shopian","Jammu and Kashmir","192303","India"
"907","House Number Not Found","Street Not Found","City Not Found","State Not Found","Postcode Not Found","Country Not Found"
"908","House Number Not Found","Street Not Found","Montalcino","Tuscany","Postcode Not Found","Italy"
"909","House Number Not Found","Street Not Found","<U+0418><U+0437><U+043C><U+0430><U+0439><U+043B><U+0438><U+0445><U+0438><U+043D><U+0441><U+043A><U+043E><U+0435> <U+0441><U+0435><U+043B><U+044C><U+0441><U+043A><U+043E><U+0435> <U+043F><U+043E><U+0441><U+0435><U+043B><U+0435><U+043D><U+0438><U+0435>","Primorsky Krai","692193","Russia"
"910","House Number Not Found","Street Not Found","City Not Found","State Not Found","Postcode Not Found","Country Not Found"
"911","House Number Not Found","Street Not Found","City Not Found","Constan<U+021B>a","Postcode Not Found","Romania"
"912","4","Schlossstraße","Simmern/Hunsrück","Rhineland-Palatinate","55469","Germany"
"913","House Number Not Found","Street Not Found","City Not Found","State Not Found","Postcode Not Found","Country Not Found"
"914","House Number Not Found","Street Not Found","City Not Found","State Not Found","Postcode Not Found","Country Not Found"
"915","House Number Not Found","Street Not Found","Sìnnia/Sinnai","Sardinia","09048","Italy"
"916","House Number Not Found","Street Not Found","City Not Found","State Not Found","Postcode Not Found","Country Not Found"
"917","House Number Not Found","Street Not Found","City Not Found","State Not Found","Postcode Not Found","Country Not Found"
"918","House Number Not Found","Street Not Found","Yavu","Sivas","Postcode Not Found","Turkey"
"919","House Number Not Found","Street Not Found","Taizhou","Jiangsu","225300","China"
"920","52","Eikjolveien","Ski","Akershus","1400","Norway"
"921","House Number Not Found","Street Not Found","City Not Found","State Not Found","Postcode Not Found","Country Not Found"
"922","House Number Not Found","Street Not Found","<U+041C><U+0435><U+0434><U+0432><U+0435><U+0434><U+0435><U+0432><U+0441><U+043A><U+043E><U+0435> <U+0441><U+0435><U+043B><U+044C><U+0441><U+043A><U+043E><U+0435> <U+043F><U+043E><U+0441><U+0435><U+043B><U+0435><U+043D><U+0438><U+0435>","Smolensk Oblast","215354","Russia"
"923","House Number Not Found","Street Not Found","Bagaha","Bihar","845118","India"
"924","House Number Not Found","Street Not Found","Sokobanja Municipality","Central Serbia","18230","Serbia"
"925","House Number Not Found","Street Not Found","Romorantin-Lanthenay","Centre-Loire Valley","41200","France"
"926","58","Street Not Found","Soltmany","Warmian-Masurian Voivodeship","11-612","Poland"
"927","House Number Not Found","Street Not Found","Kyotanba","Kyoto Prefecture","<U+3012>622-0315","Japan"
"928","House Number Not Found","Street Not Found","City Not Found","State Not Found","Postcode Not Found","Country Not Found"
"929","House Number Not Found","Street Not Found","City Not Found","Dolj","207540","Romania"
"930","House Number Not Found","Omaria Road","Opuyo","Soroti","Postcode Not Found","Uganda"
"931","House Number Not Found","Street Not Found","Listrac-de-Durèze","New Aquitaine","33790","France"
"932","52","Le Clos des Rochettes","Rocheservière","Pays de la Loire","85620","France"
"933","House Number Not Found","Evarist De Buckstraat","Ghent","Flanders","9040","Belgium"
"934","House Number Not Found","Street Not Found","City Not Found","Brittany","35370","France"
"935","House Number Not Found","Street Not Found","Saint Louis","Missouri","63147","United States of America"
"936","House Number Not Found","Street Not Found","City Not Found","State Not Found","Postcode Not Found","Country Not Found"
"937","House Number Not Found","Street Not Found","Dameron","Maryland","20653","United States of America"
"938","House Number Not Found","Street Not Found","City Not Found","Grand Est","10280","France"
"939","29","Marjatie","Mikkeli","Eastern Finland","50600","Finland"
"940","House Number Not Found","Street Not Found","Saint-Chinian","Occitania","34360","France"
"941","House Number Not Found","Street Not Found","Ställdalen","Örebro County","71472","Sweden"
"942","House Number Not Found","Street Not Found","City Not Found","Southeast","58833","Czech Republic"
"943","143","Lenina Street","Stavropol","Stavropol Krai","355000","Russia"
"944","House Number Not Found","Rue d'Armentières","Comines","Nord-Pas-de-Calais and Picardy","59560","France"
"945","House Number Not Found","<U+0443><U+043B><U+0438><U+0446><U+0430> <U+0411><U+0430><U+0431><U+0443><U+0448><U+043A><U+0438><U+043D><U+0430>","Sterlitamak","Bashkortostan","453112","Russia"
"946","House Number Not Found","Street Not Found","Stolzenau","Lower Saxony","31592","Germany"
"947","1505","Barnum Avenue","Stratford","Connecticut","06615","United States of America"
"948","House Number Not Found","Street Not Found","West Cairns (of Aberbothrie)","Scotland","PH11 8NQ","United Kingdom"
"949","House Number Not Found","Street Not Found","South Hams","England","PL21 9TW","United Kingdom"
"950","379","Rang de Picoudi","Saint-Robert","Quebec","Postcode Not Found","Canada"
"951","House Number Not Found","Street Not Found","City Not Found","State Not Found","Postcode Not Found","Country Not Found"
"952","House Number Not Found","Street Not Found","Police nad Metují","Northeast","54962","Czech Republic"
"953","House Number Not Found","Street Not Found","City Not Found","State Not Found","Postcode Not Found","Country Not Found"
"954","House Number Not Found","Street Not Found","City Not Found","State Not Found","Postcode Not Found","Country Not Found"
"955","House Number Not Found","Street Not Found","City Not Found","State Not Found","Postcode Not Found","Country Not Found"
"956","House Number Not Found","Street Not Found","City Not Found","State Not Found","Postcode Not Found","Country Not Found"
"957","House Number Not Found","Street Not Found","City Not Found","State Not Found","Postcode Not Found","Country Not Found"
"958","House Number Not Found","River Park Drive","Lotus","California","95651","United States of America"
"959","House Number Not Found","Street Not Found","Oak Grove","Alabama","35150","United States of America"
"960","House Number Not Found","Street Not Found","Tábor","Southwest","39001","Czech Republic"
"961","House Number Not Found","Avenue Colonel Lotfi","Setif","Setif","19000","Algeria"
"962","House Number Not Found","Street Not Found","City Not Found","State Not Found","Postcode Not Found","Country Not Found"
"963","House Number Not Found","Street Not Found","City Not Found","State Not Found","Postcode Not Found","Country Not Found"
"964","House Number Not Found","Street Not Found","Asago","Hyogo Prefecture","Postcode Not Found","Japan"
"965","House Number Not Found","Street Not Found","Bakalan","East Java","Postcode Not Found","Indonesia"
"966","House Number Not Found","Street Not Found","City Not Found","State Not Found","Postcode Not Found","Country Not Found"
"967","House Number Not Found","Street Not Found","Nagahama","Shiga Prefecture","5290241","Japan"
"968","House Number Not Found","Street Not Found","Deshun","Jilin","Postcode Not Found","China"
"969","House Number Not Found","Street Not Found","City Not Found","State Not Found","Postcode Not Found","Country Not Found"
"970","House Number Not Found","Street Not Found","City Not Found","State Not Found","Postcode Not Found","Country Not Found"
"971","House Number Not Found","baranhawsTobzawe","Sanur","Kirkuk","375","Iraq"
"972","House Number Not Found","Street Not Found","Tau<U+021B>i","Cluj","407282","Romania"
"973","House Number Not Found","Street Not Found","City Not Found","State Not Found","Postcode Not Found","Country Not Found"
"974","House Number Not Found","Kähri — Koorvere","Kiuma","State Not Found","Postcode Not Found","Estonia"
"975","House Number Not Found","Street Not Found","City Not Found","State Not Found","Postcode Not Found","Country Not Found"
"976","House Number Not Found","Street Not Found","City Not Found","State Not Found","Postcode Not Found","Country Not Found"
"977","House Number Not Found","Street Not Found","City Not Found","State Not Found","Postcode Not Found","Country Not Found"
"978","House Number Not Found","Street Not Found","City Not Found","State Not Found","Postcode Not Found","Country Not Found"
"979","House Number Not Found","Street Not Found","Loucany","Central Moravia","78346","Czech Republic"
"980","House Number Not Found","Street Not Found","City Not Found","Illinois","62237","United States of America"
"981","House Number Not Found","Street Not Found","City Not Found","Tillabéri","Postcode Not Found","Niger"
"982","House Number Not Found","Street Not Found","City Not Found","State Not Found","Postcode Not Found","Country Not Found"
"983","House Number Not Found","Street Not Found","Tirupati","Andhra Pradesh","517500","India"
"984","House Number Not Found","Street Not Found","City Not Found","State Not Found","Postcode Not Found","Country Not Found"
"985","House Number Not Found","Street Not Found","City Not Found","Central Java","Postcode Not Found","Indonesia"
"986","House Number Not Found","Street Not Found","Bogor","West Java","16121","Indonesia"
"987","House Number Not Found","Street Not Found","City Not Found","State Not Found","Postcode Not Found","Country Not Found"
"988","House Number Not Found","Street Not Found","City Not Found","State Not Found","Postcode Not Found","Country Not Found"
"989","House Number Not Found","Street Not Found","City Not Found","State Not Found","Postcode Not Found","Country Not Found"
"990","House Number Not Found","National Highway Route 4","Tomiya","Miyagi Prefecture","9813329","Japan"
"991","House Number Not Found","Street Not Found","City Not Found","State Not Found","Postcode Not Found","Country Not Found"
"992","3/A","Via Francesco Paciotto","Turin","Piemont","10121","Italy"
"993","House Number Not Found","Street Not Found","Torrington","Wyoming","82224","United States of America"
"994","House Number Not Found","Street Not Found","Toulouse","Occitania","31300","France"
"995","House Number Not Found","Street Not Found","Tunka","Buryatia","671020","Russia"
"996","House Number Not Found","Street Not Found","Beauvechain","Wallonia","1320","Belgium"
"997","House Number Not Found","Street Not Found","Trebbin","Brandenburg","14959","Germany"
"998","House Number Not Found","Street Not Found","Trenzano","Lombardy","Postcode Not Found","Italy"
"999","3","Am Alten Feld","Schwalmstadt","Hesse","34613","Germany"
"1000","46","Alveveien","Lofstad","East Agder","4812","Norway"
"1001","House Number Not Found","Street Not Found","Sinclair City","Texas","75789","United States of America"
"1002","19","Steggfallet","Trysil","Hedmark","2420","Norway"
"1003","House Number Not Found","<U+4E26><U+6728><U+5927><U+6A4B> (Namiki Ohashi)","Tsukuba","Ibaraki Prefecture","305-0045","Japan"
"1004","House Number Not Found","Street Not Found","City Not Found","State Not Found","Postcode Not Found","Country Not Found"
"1005","House Number Not Found","Street Not Found","City Not Found","State Not Found","Postcode Not Found","Country Not Found"
"1006","House Number Not Found","Street Not Found","City Not Found","State Not Found","Postcode Not Found","Country Not Found"
"1007","House Number Not Found","Street Not Found","City Not Found","Wisconsin","54733","United States of America"
"1008","House Number Not Found","Street Not Found","City Not Found","State Not Found","Postcode Not Found","Country Not Found"
"1009","3","Solheimsdalen","Onarheim","Hordaland","5694","Norway"
"1010","15","<U+0411><U+0430><U+0440><U+0440><U+0438><U+043A><U+0430><U+0434><U+043D><U+0430><U+044F> <U+0443><U+043B><U+0438><U+0446><U+0430>","Tyumen","Tyumen Oblast","625000","Russia"
"1011","House Number Not Found","Street Not Found","City Not Found","State Not Found","Postcode Not Found","Country Not Found"
"1012","House Number Not Found","Street Not Found","City Not Found","State Not Found","Postcode Not Found","Country Not Found"
"1013","House Number Not Found","Street Not Found","City Not Found","State Not Found","Postcode Not Found","Country Not Found"
"1014","House Number Not Found","Street Not Found","City Not Found","State Not Found","Postcode Not Found","Country Not Found"
"1015","70","Kastanjeweg","Uden","North Brabant","5401JP","The Netherlands"
"1016","House Number Not Found","Street Not Found","City Not Found","State Not Found","Postcode Not Found","Country Not Found"
"1017","House Number Not Found","Street Not Found","Ufana","Manyara","Postcode Not Found","Tanzania"
"1018","House Number Not Found","Street Not Found","Ulmiz","Fribourg","3214","Switzerland"
"1019","House Number Not Found","Street Not Found","City Not Found","State Not Found","Postcode Not Found","Country Not Found"
"1020","House Number Not Found","Street Not Found","City Not Found","State Not Found","Postcode Not Found","Country Not Found"
"1021","House Number Not Found","Street Not Found","City Not Found","State Not Found","Postcode Not Found","Country Not Found"
"1022","House Number Not Found","Street Not Found","Jangheung-gun","Jeollanam-do","Postcode Not Found","South Korea"
"1023","House Number Not Found","Street Not Found","Fukuyama","Hiroshima Prefecture","720-0838","Japan"
"1024","129","Sokolská","Ústí nad Orlicí","Northeast","56204","Czech Republic"
"1025","House Number Not Found","Street Not Found","De Bilt","Utrecht","3721WV","The Netherlands"
"1026","House Number Not Found","Street Not Found","Utzenstorf","Bern","3427","Switzerland"
"1027","House Number Not Found","Street Not Found","Lavagno","Veneto","37042","Italy"
"1028","House Number Not Found","Street Not Found","City Not Found","State Not Found","Postcode Not Found","Country Not Found"
"1029","House Number Not Found","Street Not Found","City Not Found","Lombardy","Postcode Not Found","Italy"
"1030","6","Via Valdinoce centro","Meldola","Emilia-Romagna","47014","Italy"
"1031","House Number Not Found","Street Not Found","Valera","Trujillo","3101","Venezuela"
"1032","House Number Not Found","Street Not Found","City Not Found","State Not Found","Postcode Not Found","Country Not Found"
"1033","House Number Not Found","Street Not Found","City Not Found","State Not Found","Postcode Not Found","Country Not Found"
"1034","House Number Not Found","Street Not Found","City Not Found","State Not Found","Postcode Not Found","Country Not Found"
"1035","House Number Not Found","Street Not Found","<U+0628><U+0647><U+0646><U+0627><U+0645> <U+067E><U+0627><U+0632><U+0648><U+06A9><U+06CC> <U+062C><U+0646><U+0648><U+0628><U+06CC>","Tehran Province","009821","Iran"
"1036","House Number Not Found","Street Not Found","City Not Found","State Not Found","Postcode Not Found","Country Not Found"
"1037","House Number Not Found","Street Not Found","Red Mound","Wisconsin","54624","United States of America"
"1038","House Number Not Found","Street Not Found","City Not Found","State Not Found","Postcode Not Found","Country Not Found"
"1039","251","Via Consorziale","Bondeno","Emilia-Romagna","44012","Italy"
"1040","House Number Not Found","Street Not Found","Santibáñez de la Peña","Castile and León","Postcode Not Found","Spain"
"1041","House Number Not Found","Street Not Found","City Not Found","State Not Found","Postcode Not Found","Country Not Found"
"1042","House Number Not Found","Street Not Found","City Not Found","State Not Found","Postcode Not Found","Country Not Found"
"1043","House Number Not Found","Street Not Found","City Not Found","State Not Found","Postcode Not Found","Bulgaria"
"1044","House Number Not Found","Street Not Found","City Not Found","State Not Found","Postcode Not Found","Country Not Found"
"1045","House Number Not Found","Street Not Found","City Not Found","State Not Found","Postcode Not Found","Country Not Found"
"1046","House Number Not Found","Street Not Found","City Not Found","State Not Found","Postcode Not Found","Country Not Found"
"1047","House Number Not Found","Street Not Found","Vouillé","New Aquitaine","86190","France"
"1048","House Number Not Found","Street Not Found","City Not Found","Oklahoma","73572","United States of America"
"1049","House Number Not Found","Street Not Found","Hopewell","Missouri","Postcode Not Found","United States of America"
"1050","House Number Not Found","E Street","Washougal","Washington","98671","United States of America"
"1051","House Number Not Found","<U+0645><U+0633><U+0647>-<U+0634><U+062D><U+0627><U+062A> Shahhat-Massah","Mansurah","Jabal al Akhdar","Postcode Not Found","Libya"
"1052","House Number Not Found","tr. Masarykova","Veselí nad Moravou","Southeast","69801","Czech Republic"
"1053","House Number Not Found","Street Not Found","Rock Raymond","Connecticut","06612","United States of America"
"1054","House Number Not Found","Street Not Found","Town of Wethersfield","Connecticut","06109","United States of America"
"1055","441","Wolcott Hill Road","Town of Wethersfield","Connecticut","06109","United States of America"
"1056","House Number Not Found","Street Not Found","City Not Found","Arizona","Postcode Not Found","United States of America"
"1057","House Number Not Found","Street Not Found","City Not Found","State Not Found","Postcode Not Found","Country Not Found"
"1058","House Number Not Found","Street Not Found","Albert Luthuli Local Municipality","Mpumalanga","1185","South Africa"
"1059","House Number Not Found","Street Not Found","City Not Found","State Not Found","Postcode Not Found","Country Not Found"
"1060","House Number Not Found","Street Not Found","Beaufort West Local Municipality","Western Cape","6970","South Africa"
"1061","House Number Not Found","Street Not Found","City Not Found","Oromia Region","Postcode Not Found","Ethiopia"
"1062","House Number Not Found","Street Not Found","Wold Newton","England","YO25 3YQ","United Kingdom"
"1063","House Number Not Found","Street Not Found","City Not Found","State Not Found","Postcode Not Found","Country Not Found"
"1064","House Number Not Found","Street Not Found","Salem Township","Michigan","48175","United States of America"
"1065","House Number Not Found","Street Not Found","City Not Found","Hebei","056000","China"
"1066","House Number Not Found","Street Not Found","City Not Found","State Not Found","Postcode Not Found","Country Not Found"
"1067","House Number Not Found","Street Not Found","West Ujimqin Banner","Inner Mongolia","+976","China"
"1068","House Number Not Found","Street Not Found","City Not Found","State Not Found","Postcode Not Found","Country Not Found"
"1069","House Number Not Found","Street Not Found","City Not Found","State Not Found","Postcode Not Found","Country Not Found"
"1070","House Number Not Found","Street Not Found","City Not Found","State Not Found","Postcode Not Found","Country Not Found"
"1071","House Number Not Found","Street Not Found","City Not Found","State Not Found","Postcode Not Found","Country Not Found"
"1072","House Number Not Found","Street Not Found","City Not Found","Guangdong","Postcode Not Found","China"
"1073","House Number Not Found","Street Not Found","City Not Found","State Not Found","Postcode Not Found","Country Not Found"
"1074","House Number Not Found","Street Not Found","City Not Found","Andhra Pradesh","Postcode Not Found","India"
"1075","House Number Not Found","Street Not Found","Niigata","Niigata Prefecture","950-1304","Japan"
"1076","House Number Not Found","Street Not Found","Yorktown","New York","10598","United States of America"
"1077","House Number Not Found","National Route 9;Yamaguchi Bypass","Yamaguchi","Yamaguchi Prefecture","753-0075","Japan"
"1078","House Number Not Found","Street Not Found","City Not Found","State Not Found","Postcode Not Found","Country Not Found"
"1079","House Number Not Found","Street Not Found","City Not Found","State Not Found","Postcode Not Found","Country Not Found"
"1080","House Number Not Found","Street Not Found","City Not Found","Zhytomyr Oblast","12700-12705","Ukraine"
"1081","House Number Not Found","Street Not Found","City Not Found","State Not Found","Postcode Not Found","Country Not Found"
"1082","House Number Not Found","Street Not Found","City Not Found","State Not Found","Postcode Not Found","Country Not Found"
"1083","House Number Not Found","Street Not Found","Yankara","Katsina","Postcode Not Found","Nigeria"
"1084","House Number Not Found","Street Not Found","City Not Found","State Not Found","Postcode Not Found","Country Not Found"
"1085","House Number Not Found","Street Not Found","Kami","Kochi Prefecture","782-0009","Japan"
"1086","House Number Not Found","Street Not Found","City Not Found","State Not Found","Postcode Not Found","Country Not Found"
"1087","House Number Not Found","Street Not Found","Zavetnoye","Rostov Oblast","Postcode Not Found","Russia"
"1088","House Number Not Found","Street Not Found","Mali Zvornik Municipality","Central Serbia","15318","Serbia"
"1089","75","Street Not Found","Chlustina","Central Bohemia","26751","Czech Republic"
"1090","House Number Not Found","Street Not Found","City Not Found","Vilnius County","20388","Lithuania"
"1091","House Number Not Found","Street Not Found","City Not Found","Heilongjiang","Postcode Not Found","China"
"1092","House Number Not Found","Street Not Found","City Not Found","State Not Found","Postcode Not Found","Country Not Found"
"1093","House Number Not Found","Street Not Found","Zhuanghe","Liaoning","Postcode Not Found","China"
"1094","House Number Not Found","Street Not Found","<U+041B><U+044E><U+0442><U+044B><U+0439> <U+0411><U+043E><U+0440>","Brest Region","225502","Belarus"
"1095","House Number Not Found","Street Not Found","City Not Found","State Not Found","Postcode Not Found","Country Not Found"
"1096","House Number Not Found","Street Not Found","Zsadány","Great Plain and North","5537","Hungary"
"1097","House Number Not Found","Street Not Found","Zdorivka","Kyiv Oblast","08627","Ukraine"
